<?xml version="1.0" encoding="UTF-8"?>
<gpx version="1.1" creator="pitlane-seed">
  <trk><name>Demo</name><trkseg>
    <trkpt lat="55.882800" lon="36.561500"><time>2026-06-14T10:00:00.000Z</time></trkpt>
    <trkpt lat="55.883584" lon="36.561467"><time>2026-06-14T10:00:00.908Z</time></trkpt>
    <trkpt lat="55.884363" lon="36.561369"><time>2026-06-14T10:00:01.815Z</time></trkpt>
    <trkpt lat="55.885131" lon="36.561205"><time>2026-06-14T10:00:02.723Z</time></trkpt>
    <trkpt lat="55.885883" lon="36.560977"><time>2026-06-14T10:00:03.630Z</time></trkpt>
    <trkpt lat="55.886613" lon="36.560686"><time>2026-06-14T10:00:04.538Z</time></trkpt>
    <trkpt lat="55.887317" lon="36.560333"><time>2026-06-14T10:00:05.445Z</time></trkpt>
    <trkpt lat="55.887991" lon="36.559919"><time>2026-06-14T10:00:06.353Z</time></trkpt>
    <trkpt lat="55.888632" lon="36.559448"><time>2026-06-14T10:00:07.260Z</time></trkpt>
    <trkpt lat="55.889236" lon="36.558920"><time>2026-06-14T10:00:08.168Z</time></trkpt>
    <trkpt lat="55.889800" lon="36.558338"><time>2026-06-14T10:00:09.075Z</time></trkpt>
    <trkpt lat="55.890323" lon="36.557706"><time>2026-06-14T10:00:09.983Z</time></trkpt>
    <trkpt lat="55.890804" lon="36.557026"><time>2026-06-14T10:00:10.890Z</time></trkpt>
    <trkpt lat="55.891243" lon="36.556300"><time>2026-06-14T10:00:11.798Z</time></trkpt>
    <trkpt lat="55.891639" lon="36.555533"><time>2026-06-14T10:00:12.705Z</time></trkpt>
    <trkpt lat="55.891992" lon="36.554728"><time>2026-06-14T10:00:13.613Z</time></trkpt>
    <trkpt lat="55.892306" lon="36.553888"><time>2026-06-14T10:00:14.520Z</time></trkpt>
    <trkpt lat="55.892580" lon="36.553016"><time>2026-06-14T10:00:15.428Z</time></trkpt>
    <trkpt lat="55.892817" lon="36.552117"><time>2026-06-14T10:00:16.335Z</time></trkpt>
    <trkpt lat="55.893020" lon="36.551193"><time>2026-06-14T10:00:17.243Z</time></trkpt>
    <trkpt lat="55.893192" lon="36.550250"><time>2026-06-14T10:00:18.150Z</time></trkpt>
    <trkpt lat="55.893336" lon="36.549290"><time>2026-06-14T10:00:19.058Z</time></trkpt>
    <trkpt lat="55.893454" lon="36.548318"><time>2026-06-14T10:00:19.965Z</time></trkpt>
    <trkpt lat="55.893549" lon="36.547336"><time>2026-06-14T10:00:20.873Z</time></trkpt>
    <trkpt lat="55.893625" lon="36.546349"><time>2026-06-14T10:00:21.780Z</time></trkpt>
    <trkpt lat="55.893684" lon="36.545360"><time>2026-06-14T10:00:22.688Z</time></trkpt>
    <trkpt lat="55.893729" lon="36.544372"><time>2026-06-14T10:00:23.595Z</time></trkpt>
    <trkpt lat="55.893761" lon="36.543389"><time>2026-06-14T10:00:24.503Z</time></trkpt>
    <trkpt lat="55.893783" lon="36.542414"><time>2026-06-14T10:00:25.410Z</time></trkpt>
    <trkpt lat="55.893796" lon="36.541450"><time>2026-06-14T10:00:26.318Z</time></trkpt>
    <trkpt lat="55.893800" lon="36.540500"><time>2026-06-14T10:00:27.225Z</time></trkpt>
    <trkpt lat="55.893796" lon="36.539566"><time>2026-06-14T10:00:28.133Z</time></trkpt>
    <trkpt lat="55.893783" lon="36.538651"><time>2026-06-14T10:00:29.040Z</time></trkpt>
    <trkpt lat="55.893761" lon="36.537758"><time>2026-06-14T10:00:29.948Z</time></trkpt>
    <trkpt lat="55.893729" lon="36.536887"><time>2026-06-14T10:00:30.855Z</time></trkpt>
    <trkpt lat="55.893684" lon="36.536042"><time>2026-06-14T10:00:31.763Z</time></trkpt>
    <trkpt lat="55.893625" lon="36.535224"><time>2026-06-14T10:00:32.670Z</time></trkpt>
    <trkpt lat="55.893549" lon="36.534435"><time>2026-06-14T10:00:33.578Z</time></trkpt>
    <trkpt lat="55.893454" lon="36.533675"><time>2026-06-14T10:00:34.485Z</time></trkpt>
    <trkpt lat="55.893336" lon="36.532946"><time>2026-06-14T10:00:35.393Z</time></trkpt>
    <trkpt lat="55.893192" lon="36.532250"><time>2026-06-14T10:00:36.300Z</time></trkpt>
    <trkpt lat="55.893020" lon="36.531586"><time>2026-06-14T10:00:37.208Z</time></trkpt>
    <trkpt lat="55.892817" lon="36.530956"><time>2026-06-14T10:00:38.115Z</time></trkpt>
    <trkpt lat="55.892580" lon="36.530360"><time>2026-06-14T10:00:39.023Z</time></trkpt>
    <trkpt lat="55.892306" lon="36.529799"><time>2026-06-14T10:00:39.930Z</time></trkpt>
    <trkpt lat="55.891992" lon="36.529272"><time>2026-06-14T10:00:40.838Z</time></trkpt>
    <trkpt lat="55.891639" lon="36.528780"><time>2026-06-14T10:00:41.745Z</time></trkpt>
    <trkpt lat="55.891243" lon="36.528323"><time>2026-06-14T10:00:42.653Z</time></trkpt>
    <trkpt lat="55.890804" lon="36.527901"><time>2026-06-14T10:00:43.560Z</time></trkpt>
    <trkpt lat="55.890323" lon="36.527514"><time>2026-06-14T10:00:44.468Z</time></trkpt>
    <trkpt lat="55.889800" lon="36.527162"><time>2026-06-14T10:00:45.375Z</time></trkpt>
    <trkpt lat="55.889236" lon="36.526844"><time>2026-06-14T10:00:46.283Z</time></trkpt>
    <trkpt lat="55.888632" lon="36.526560"><time>2026-06-14T10:00:47.190Z</time></trkpt>
    <trkpt lat="55.887991" lon="36.526310"><time>2026-06-14T10:00:48.098Z</time></trkpt>
    <trkpt lat="55.887317" lon="36.526095"><time>2026-06-14T10:00:49.005Z</time></trkpt>
    <trkpt lat="55.886613" lon="36.525912"><time>2026-06-14T10:00:49.913Z</time></trkpt>
    <trkpt lat="55.885883" lon="36.525764"><time>2026-06-14T10:00:50.820Z</time></trkpt>
    <trkpt lat="55.885131" lon="36.525648"><time>2026-06-14T10:00:51.728Z</time></trkpt>
    <trkpt lat="55.884363" lon="36.525566"><time>2026-06-14T10:00:52.635Z</time></trkpt>
    <trkpt lat="55.883584" lon="36.525516"><time>2026-06-14T10:00:53.543Z</time></trkpt>
    <trkpt lat="55.882800" lon="36.525500"><time>2026-06-14T10:00:54.450Z</time></trkpt>
    <trkpt lat="55.882016" lon="36.525516"><time>2026-06-14T10:00:55.358Z</time></trkpt>
    <trkpt lat="55.881237" lon="36.525566"><time>2026-06-14T10:00:56.265Z</time></trkpt>
    <trkpt lat="55.880469" lon="36.525648"><time>2026-06-14T10:00:57.173Z</time></trkpt>
    <trkpt lat="55.879717" lon="36.525764"><time>2026-06-14T10:00:58.080Z</time></trkpt>
    <trkpt lat="55.878987" lon="36.525912"><time>2026-06-14T10:00:58.987Z</time></trkpt>
    <trkpt lat="55.878283" lon="36.526095"><time>2026-06-14T10:00:59.895Z</time></trkpt>
    <trkpt lat="55.877609" lon="36.526310"><time>2026-06-14T10:01:00.803Z</time></trkpt>
    <trkpt lat="55.876968" lon="36.526560"><time>2026-06-14T10:01:01.710Z</time></trkpt>
    <trkpt lat="55.876364" lon="36.526844"><time>2026-06-14T10:01:02.617Z</time></trkpt>
    <trkpt lat="55.875800" lon="36.527162"><time>2026-06-14T10:01:03.525Z</time></trkpt>
    <trkpt lat="55.875277" lon="36.527514"><time>2026-06-14T10:01:04.433Z</time></trkpt>
    <trkpt lat="55.874796" lon="36.527901"><time>2026-06-14T10:01:05.340Z</time></trkpt>
    <trkpt lat="55.874357" lon="36.528323"><time>2026-06-14T10:01:06.248Z</time></trkpt>
    <trkpt lat="55.873961" lon="36.528780"><time>2026-06-14T10:01:07.155Z</time></trkpt>
    <trkpt lat="55.873608" lon="36.529272"><time>2026-06-14T10:01:08.063Z</time></trkpt>
    <trkpt lat="55.873294" lon="36.529799"><time>2026-06-14T10:01:08.970Z</time></trkpt>
    <trkpt lat="55.873020" lon="36.530360"><time>2026-06-14T10:01:09.878Z</time></trkpt>
    <trkpt lat="55.872783" lon="36.530956"><time>2026-06-14T10:01:10.785Z</time></trkpt>
    <trkpt lat="55.872580" lon="36.531586"><time>2026-06-14T10:01:11.693Z</time></trkpt>
    <trkpt lat="55.872408" lon="36.532250"><time>2026-06-14T10:01:12.600Z</time></trkpt>
    <trkpt lat="55.872264" lon="36.532946"><time>2026-06-14T10:01:13.508Z</time></trkpt>
    <trkpt lat="55.872146" lon="36.533675"><time>2026-06-14T10:01:14.415Z</time></trkpt>
    <trkpt lat="55.872051" lon="36.534435"><time>2026-06-14T10:01:15.323Z</time></trkpt>
    <trkpt lat="55.871975" lon="36.535224"><time>2026-06-14T10:01:16.230Z</time></trkpt>
    <trkpt lat="55.871916" lon="36.536042"><time>2026-06-14T10:01:17.138Z</time></trkpt>
    <trkpt lat="55.871871" lon="36.536887"><time>2026-06-14T10:01:18.045Z</time></trkpt>
    <trkpt lat="55.871839" lon="36.537758"><time>2026-06-14T10:01:18.953Z</time></trkpt>
    <trkpt lat="55.871817" lon="36.538651"><time>2026-06-14T10:01:19.860Z</time></trkpt>
    <trkpt lat="55.871804" lon="36.539566"><time>2026-06-14T10:01:20.768Z</time></trkpt>
    <trkpt lat="55.871800" lon="36.540500"><time>2026-06-14T10:01:21.675Z</time></trkpt>
    <trkpt lat="55.871804" lon="36.541450"><time>2026-06-14T10:01:22.583Z</time></trkpt>
    <trkpt lat="55.871817" lon="36.542414"><time>2026-06-14T10:01:23.490Z</time></trkpt>
    <trkpt lat="55.871839" lon="36.543389"><time>2026-06-14T10:01:24.398Z</time></trkpt>
    <trkpt lat="55.871871" lon="36.544372"><time>2026-06-14T10:01:25.305Z</time></trkpt>
    <trkpt lat="55.871916" lon="36.545360"><time>2026-06-14T10:01:26.213Z</time></trkpt>
    <trkpt lat="55.871975" lon="36.546349"><time>2026-06-14T10:01:27.120Z</time></trkpt>
    <trkpt lat="55.872051" lon="36.547336"><time>2026-06-14T10:01:28.028Z</time></trkpt>
    <trkpt lat="55.872146" lon="36.548318"><time>2026-06-14T10:01:28.935Z</time></trkpt>
    <trkpt lat="55.872264" lon="36.549290"><time>2026-06-14T10:01:29.843Z</time></trkpt>
    <trkpt lat="55.872408" lon="36.550250"><time>2026-06-14T10:01:30.750Z</time></trkpt>
    <trkpt lat="55.872580" lon="36.551193"><time>2026-06-14T10:01:31.658Z</time></trkpt>
    <trkpt lat="55.872783" lon="36.552117"><time>2026-06-14T10:01:32.565Z</time></trkpt>
    <trkpt lat="55.873020" lon="36.553016"><time>2026-06-14T10:01:33.473Z</time></trkpt>
    <trkpt lat="55.873294" lon="36.553888"><time>2026-06-14T10:01:34.380Z</time></trkpt>
    <trkpt lat="55.873608" lon="36.554728"><time>2026-06-14T10:01:35.288Z</time></trkpt>
    <trkpt lat="55.873961" lon="36.555533"><time>2026-06-14T10:01:36.195Z</time></trkpt>
    <trkpt lat="55.874357" lon="36.556300"><time>2026-06-14T10:01:37.103Z</time></trkpt>
    <trkpt lat="55.874796" lon="36.557026"><time>2026-06-14T10:01:38.010Z</time></trkpt>
    <trkpt lat="55.875277" lon="36.557706"><time>2026-06-14T10:01:38.918Z</time></trkpt>
    <trkpt lat="55.875800" lon="36.558338"><time>2026-06-14T10:01:39.825Z</time></trkpt>
    <trkpt lat="55.876364" lon="36.558920"><time>2026-06-14T10:01:40.733Z</time></trkpt>
    <trkpt lat="55.876968" lon="36.559448"><time>2026-06-14T10:01:41.640Z</time></trkpt>
    <trkpt lat="55.877609" lon="36.559919"><time>2026-06-14T10:01:42.548Z</time></trkpt>
    <trkpt lat="55.878283" lon="36.560333"><time>2026-06-14T10:01:43.455Z</time></trkpt>
    <trkpt lat="55.878987" lon="36.560686"><time>2026-06-14T10:01:44.363Z</time></trkpt>
    <trkpt lat="55.879717" lon="36.560977"><time>2026-06-14T10:01:45.270Z</time></trkpt>
    <trkpt lat="55.880469" lon="36.561205"><time>2026-06-14T10:01:46.178Z</time></trkpt>
    <trkpt lat="55.881237" lon="36.561369"><time>2026-06-14T10:01:47.085Z</time></trkpt>
    <trkpt lat="55.882016" lon="36.561467"><time>2026-06-14T10:01:47.993Z</time></trkpt>
    <trkpt lat="55.882800" lon="36.561500"><time>2026-06-14T10:01:49.400Z</time></trkpt>
    <trkpt lat="55.883584" lon="36.561467"><time>2026-06-14T10:01:50.310Z</time></trkpt>
    <trkpt lat="55.884363" lon="36.561369"><time>2026-06-14T10:01:51.220Z</time></trkpt>
    <trkpt lat="55.885131" lon="36.561205"><time>2026-06-14T10:01:52.131Z</time></trkpt>
    <trkpt lat="55.885883" lon="36.560977"><time>2026-06-14T10:01:53.041Z</time></trkpt>
    <trkpt lat="55.886613" lon="36.560686"><time>2026-06-14T10:01:53.951Z</time></trkpt>
    <trkpt lat="55.887317" lon="36.560333"><time>2026-06-14T10:01:54.861Z</time></trkpt>
    <trkpt lat="55.887991" lon="36.559919"><time>2026-06-14T10:01:55.772Z</time></trkpt>
    <trkpt lat="55.888632" lon="36.559448"><time>2026-06-14T10:01:56.682Z</time></trkpt>
    <trkpt lat="55.889236" lon="36.558920"><time>2026-06-14T10:01:57.592Z</time></trkpt>
    <trkpt lat="55.889800" lon="36.558338"><time>2026-06-14T10:01:58.502Z</time></trkpt>
    <trkpt lat="55.890323" lon="36.557706"><time>2026-06-14T10:01:59.413Z</time></trkpt>
    <trkpt lat="55.890804" lon="36.557026"><time>2026-06-14T10:02:00.323Z</time></trkpt>
    <trkpt lat="55.891243" lon="36.556300"><time>2026-06-14T10:02:01.233Z</time></trkpt>
    <trkpt lat="55.891639" lon="36.555533"><time>2026-06-14T10:02:02.143Z</time></trkpt>
    <trkpt lat="55.891992" lon="36.554728"><time>2026-06-14T10:02:03.054Z</time></trkpt>
    <trkpt lat="55.892306" lon="36.553888"><time>2026-06-14T10:02:03.964Z</time></trkpt>
    <trkpt lat="55.892580" lon="36.553016"><time>2026-06-14T10:02:04.874Z</time></trkpt>
    <trkpt lat="55.892817" lon="36.552117"><time>2026-06-14T10:02:05.784Z</time></trkpt>
    <trkpt lat="55.893020" lon="36.551193"><time>2026-06-14T10:02:06.694Z</time></trkpt>
    <trkpt lat="55.893192" lon="36.550250"><time>2026-06-14T10:02:07.605Z</time></trkpt>
    <trkpt lat="55.893336" lon="36.549290"><time>2026-06-14T10:02:08.515Z</time></trkpt>
    <trkpt lat="55.893454" lon="36.548318"><time>2026-06-14T10:02:09.425Z</time></trkpt>
    <trkpt lat="55.893549" lon="36.547336"><time>2026-06-14T10:02:10.335Z</time></trkpt>
    <trkpt lat="55.893625" lon="36.546349"><time>2026-06-14T10:02:11.246Z</time></trkpt>
    <trkpt lat="55.893684" lon="36.545360"><time>2026-06-14T10:02:12.156Z</time></trkpt>
    <trkpt lat="55.893729" lon="36.544372"><time>2026-06-14T10:02:13.066Z</time></trkpt>
    <trkpt lat="55.893761" lon="36.543389"><time>2026-06-14T10:02:13.976Z</time></trkpt>
    <trkpt lat="55.893783" lon="36.542414"><time>2026-06-14T10:02:14.887Z</time></trkpt>
    <trkpt lat="55.893796" lon="36.541450"><time>2026-06-14T10:02:15.797Z</time></trkpt>
    <trkpt lat="55.893800" lon="36.540500"><time>2026-06-14T10:02:16.707Z</time></trkpt>
    <trkpt lat="55.893796" lon="36.539566"><time>2026-06-14T10:02:17.617Z</time></trkpt>
    <trkpt lat="55.893783" lon="36.538651"><time>2026-06-14T10:02:18.527Z</time></trkpt>
    <trkpt lat="55.893761" lon="36.537758"><time>2026-06-14T10:02:19.438Z</time></trkpt>
    <trkpt lat="55.893729" lon="36.536887"><time>2026-06-14T10:02:20.348Z</time></trkpt>
    <trkpt lat="55.893684" lon="36.536042"><time>2026-06-14T10:02:21.258Z</time></trkpt>
    <trkpt lat="55.893625" lon="36.535224"><time>2026-06-14T10:02:22.168Z</time></trkpt>
    <trkpt lat="55.893549" lon="36.534435"><time>2026-06-14T10:02:23.079Z</time></trkpt>
    <trkpt lat="55.893454" lon="36.533675"><time>2026-06-14T10:02:23.989Z</time></trkpt>
    <trkpt lat="55.893336" lon="36.532946"><time>2026-06-14T10:02:24.899Z</time></trkpt>
    <trkpt lat="55.893192" lon="36.532250"><time>2026-06-14T10:02:25.809Z</time></trkpt>
    <trkpt lat="55.893020" lon="36.531586"><time>2026-06-14T10:02:26.720Z</time></trkpt>
    <trkpt lat="55.892817" lon="36.530956"><time>2026-06-14T10:02:27.630Z</time></trkpt>
    <trkpt lat="55.892580" lon="36.530360"><time>2026-06-14T10:02:28.540Z</time></trkpt>
    <trkpt lat="55.892306" lon="36.529799"><time>2026-06-14T10:02:29.450Z</time></trkpt>
    <trkpt lat="55.891992" lon="36.529272"><time>2026-06-14T10:02:30.361Z</time></trkpt>
    <trkpt lat="55.891639" lon="36.528780"><time>2026-06-14T10:02:31.271Z</time></trkpt>
    <trkpt lat="55.891243" lon="36.528323"><time>2026-06-14T10:02:32.181Z</time></trkpt>
    <trkpt lat="55.890804" lon="36.527901"><time>2026-06-14T10:02:33.091Z</time></trkpt>
    <trkpt lat="55.890323" lon="36.527514"><time>2026-06-14T10:02:34.001Z</time></trkpt>
    <trkpt lat="55.889800" lon="36.527162"><time>2026-06-14T10:02:34.912Z</time></trkpt>
    <trkpt lat="55.889236" lon="36.526844"><time>2026-06-14T10:02:35.822Z</time></trkpt>
    <trkpt lat="55.888632" lon="36.526560"><time>2026-06-14T10:02:36.732Z</time></trkpt>
    <trkpt lat="55.887991" lon="36.526310"><time>2026-06-14T10:02:37.642Z</time></trkpt>
    <trkpt lat="55.887317" lon="36.526095"><time>2026-06-14T10:02:38.553Z</time></trkpt>
    <trkpt lat="55.886613" lon="36.525912"><time>2026-06-14T10:02:39.463Z</time></trkpt>
    <trkpt lat="55.885883" lon="36.525764"><time>2026-06-14T10:02:40.373Z</time></trkpt>
    <trkpt lat="55.885131" lon="36.525648"><time>2026-06-14T10:02:41.283Z</time></trkpt>
    <trkpt lat="55.884363" lon="36.525566"><time>2026-06-14T10:02:42.194Z</time></trkpt>
    <trkpt lat="55.883584" lon="36.525516"><time>2026-06-14T10:02:43.104Z</time></trkpt>
    <trkpt lat="55.882800" lon="36.525500"><time>2026-06-14T10:02:44.014Z</time></trkpt>
    <trkpt lat="55.882016" lon="36.525516"><time>2026-06-14T10:02:44.924Z</time></trkpt>
    <trkpt lat="55.881237" lon="36.525566"><time>2026-06-14T10:02:45.834Z</time></trkpt>
    <trkpt lat="55.880469" lon="36.525648"><time>2026-06-14T10:02:46.745Z</time></trkpt>
    <trkpt lat="55.879717" lon="36.525764"><time>2026-06-14T10:02:47.655Z</time></trkpt>
    <trkpt lat="55.878987" lon="36.525912"><time>2026-06-14T10:02:48.565Z</time></trkpt>
    <trkpt lat="55.878283" lon="36.526095"><time>2026-06-14T10:02:49.475Z</time></trkpt>
    <trkpt lat="55.877609" lon="36.526310"><time>2026-06-14T10:02:50.386Z</time></trkpt>
    <trkpt lat="55.876968" lon="36.526560"><time>2026-06-14T10:02:51.296Z</time></trkpt>
    <trkpt lat="55.876364" lon="36.526844"><time>2026-06-14T10:02:52.206Z</time></trkpt>
    <trkpt lat="55.875800" lon="36.527162"><time>2026-06-14T10:02:53.116Z</time></trkpt>
    <trkpt lat="55.875277" lon="36.527514"><time>2026-06-14T10:02:54.027Z</time></trkpt>
    <trkpt lat="55.874796" lon="36.527901"><time>2026-06-14T10:02:54.937Z</time></trkpt>
    <trkpt lat="55.874357" lon="36.528323"><time>2026-06-14T10:02:55.847Z</time></trkpt>
    <trkpt lat="55.873961" lon="36.528780"><time>2026-06-14T10:02:56.757Z</time></trkpt>
    <trkpt lat="55.873608" lon="36.529272"><time>2026-06-14T10:02:57.668Z</time></trkpt>
    <trkpt lat="55.873294" lon="36.529799"><time>2026-06-14T10:02:58.578Z</time></trkpt>
    <trkpt lat="55.873020" lon="36.530360"><time>2026-06-14T10:02:59.488Z</time></trkpt>
    <trkpt lat="55.872783" lon="36.530956"><time>2026-06-14T10:03:00.398Z</time></trkpt>
    <trkpt lat="55.872580" lon="36.531586"><time>2026-06-14T10:03:01.308Z</time></trkpt>
    <trkpt lat="55.872408" lon="36.532250"><time>2026-06-14T10:03:02.219Z</time></trkpt>
    <trkpt lat="55.872264" lon="36.532946"><time>2026-06-14T10:03:03.129Z</time></trkpt>
    <trkpt lat="55.872146" lon="36.533675"><time>2026-06-14T10:03:04.039Z</time></trkpt>
    <trkpt lat="55.872051" lon="36.534435"><time>2026-06-14T10:03:04.949Z</time></trkpt>
    <trkpt lat="55.871975" lon="36.535224"><time>2026-06-14T10:03:05.860Z</time></trkpt>
    <trkpt lat="55.871916" lon="36.536042"><time>2026-06-14T10:03:06.770Z</time></trkpt>
    <trkpt lat="55.871871" lon="36.536887"><time>2026-06-14T10:03:07.680Z</time></trkpt>
    <trkpt lat="55.871839" lon="36.537758"><time>2026-06-14T10:03:08.590Z</time></trkpt>
    <trkpt lat="55.871817" lon="36.538651"><time>2026-06-14T10:03:09.501Z</time></trkpt>
    <trkpt lat="55.871804" lon="36.539566"><time>2026-06-14T10:03:10.411Z</time></trkpt>
    <trkpt lat="55.871800" lon="36.540500"><time>2026-06-14T10:03:11.321Z</time></trkpt>
    <trkpt lat="55.871804" lon="36.541450"><time>2026-06-14T10:03:12.231Z</time></trkpt>
    <trkpt lat="55.871817" lon="36.542414"><time>2026-06-14T10:03:13.141Z</time></trkpt>
    <trkpt lat="55.871839" lon="36.543389"><time>2026-06-14T10:03:14.052Z</time></trkpt>
    <trkpt lat="55.871871" lon="36.544372"><time>2026-06-14T10:03:14.962Z</time></trkpt>
    <trkpt lat="55.871916" lon="36.545360"><time>2026-06-14T10:03:15.872Z</time></trkpt>
    <trkpt lat="55.871975" lon="36.546349"><time>2026-06-14T10:03:16.782Z</time></trkpt>
    <trkpt lat="55.872051" lon="36.547336"><time>2026-06-14T10:03:17.693Z</time></trkpt>
    <trkpt lat="55.872146" lon="36.548318"><time>2026-06-14T10:03:18.603Z</time></trkpt>
    <trkpt lat="55.872264" lon="36.549290"><time>2026-06-14T10:03:19.513Z</time></trkpt>
    <trkpt lat="55.872408" lon="36.550250"><time>2026-06-14T10:03:20.423Z</time></trkpt>
    <trkpt lat="55.872580" lon="36.551193"><time>2026-06-14T10:03:21.334Z</time></trkpt>
    <trkpt lat="55.872783" lon="36.552117"><time>2026-06-14T10:03:22.244Z</time></trkpt>
    <trkpt lat="55.873020" lon="36.553016"><time>2026-06-14T10:03:23.154Z</time></trkpt>
    <trkpt lat="55.873294" lon="36.553888"><time>2026-06-14T10:03:24.064Z</time></trkpt>
    <trkpt lat="55.873608" lon="36.554728"><time>2026-06-14T10:03:24.975Z</time></trkpt>
    <trkpt lat="55.873961" lon="36.555533"><time>2026-06-14T10:03:25.885Z</time></trkpt>
    <trkpt lat="55.874357" lon="36.556300"><time>2026-06-14T10:03:26.795Z</time></trkpt>
    <trkpt lat="55.874796" lon="36.557026"><time>2026-06-14T10:03:27.705Z</time></trkpt>
    <trkpt lat="55.875277" lon="36.557706"><time>2026-06-14T10:03:28.615Z</time></trkpt>
    <trkpt lat="55.875800" lon="36.558338"><time>2026-06-14T10:03:29.526Z</time></trkpt>
    <trkpt lat="55.876364" lon="36.558920"><time>2026-06-14T10:03:30.436Z</time></trkpt>
    <trkpt lat="55.876968" lon="36.559448"><time>2026-06-14T10:03:31.346Z</time></trkpt>
    <trkpt lat="55.877609" lon="36.559919"><time>2026-06-14T10:03:32.256Z</time></trkpt>
    <trkpt lat="55.878283" lon="36.560333"><time>2026-06-14T10:03:33.167Z</time></trkpt>
    <trkpt lat="55.878987" lon="36.560686"><time>2026-06-14T10:03:34.077Z</time></trkpt>
    <trkpt lat="55.879717" lon="36.560977"><time>2026-06-14T10:03:34.987Z</time></trkpt>
    <trkpt lat="55.880469" lon="36.561205"><time>2026-06-14T10:03:35.897Z</time></trkpt>
    <trkpt lat="55.881237" lon="36.561369"><time>2026-06-14T10:03:36.808Z</time></trkpt>
    <trkpt lat="55.882016" lon="36.561467"><time>2026-06-14T10:03:37.718Z</time></trkpt>
    <trkpt lat="55.882800" lon="36.561500"><time>2026-06-14T10:03:39.128Z</time></trkpt>
    <trkpt lat="55.883584" lon="36.561467"><time>2026-06-14T10:03:40.036Z</time></trkpt>
    <trkpt lat="55.884363" lon="36.561369"><time>2026-06-14T10:03:40.945Z</time></trkpt>
    <trkpt lat="55.885131" lon="36.561205"><time>2026-06-14T10:03:41.853Z</time></trkpt>
    <trkpt lat="55.885883" lon="36.560977"><time>2026-06-14T10:03:42.761Z</time></trkpt>
    <trkpt lat="55.886613" lon="36.560686"><time>2026-06-14T10:03:43.670Z</time></trkpt>
    <trkpt lat="55.887317" lon="36.560333"><time>2026-06-14T10:03:44.578Z</time></trkpt>
    <trkpt lat="55.887991" lon="36.559919"><time>2026-06-14T10:03:45.486Z</time></trkpt>
    <trkpt lat="55.888632" lon="36.559448"><time>2026-06-14T10:03:46.394Z</time></trkpt>
    <trkpt lat="55.889236" lon="36.558920"><time>2026-06-14T10:03:47.303Z</time></trkpt>
    <trkpt lat="55.889800" lon="36.558338"><time>2026-06-14T10:03:48.211Z</time></trkpt>
    <trkpt lat="55.890323" lon="36.557706"><time>2026-06-14T10:03:49.119Z</time></trkpt>
    <trkpt lat="55.890804" lon="36.557026"><time>2026-06-14T10:03:50.028Z</time></trkpt>
    <trkpt lat="55.891243" lon="36.556300"><time>2026-06-14T10:03:50.936Z</time></trkpt>
    <trkpt lat="55.891639" lon="36.555533"><time>2026-06-14T10:03:51.844Z</time></trkpt>
    <trkpt lat="55.891992" lon="36.554728"><time>2026-06-14T10:03:52.753Z</time></trkpt>
    <trkpt lat="55.892306" lon="36.553888"><time>2026-06-14T10:03:53.661Z</time></trkpt>
    <trkpt lat="55.892580" lon="36.553016"><time>2026-06-14T10:03:54.569Z</time></trkpt>
    <trkpt lat="55.892817" lon="36.552117"><time>2026-06-14T10:03:55.477Z</time></trkpt>
    <trkpt lat="55.893020" lon="36.551193"><time>2026-06-14T10:03:56.386Z</time></trkpt>
    <trkpt lat="55.893192" lon="36.550250"><time>2026-06-14T10:03:57.294Z</time></trkpt>
    <trkpt lat="55.893336" lon="36.549290"><time>2026-06-14T10:03:58.202Z</time></trkpt>
    <trkpt lat="55.893454" lon="36.548318"><time>2026-06-14T10:03:59.111Z</time></trkpt>
    <trkpt lat="55.893549" lon="36.547336"><time>2026-06-14T10:04:00.019Z</time></trkpt>
    <trkpt lat="55.893625" lon="36.546349"><time>2026-06-14T10:04:00.927Z</time></trkpt>
    <trkpt lat="55.893684" lon="36.545360"><time>2026-06-14T10:04:01.836Z</time></trkpt>
    <trkpt lat="55.893729" lon="36.544372"><time>2026-06-14T10:04:02.744Z</time></trkpt>
    <trkpt lat="55.893761" lon="36.543389"><time>2026-06-14T10:04:03.652Z</time></trkpt>
    <trkpt lat="55.893783" lon="36.542414"><time>2026-06-14T10:04:04.560Z</time></trkpt>
    <trkpt lat="55.893796" lon="36.541450"><time>2026-06-14T10:04:05.469Z</time></trkpt>
    <trkpt lat="55.893800" lon="36.540500"><time>2026-06-14T10:04:06.377Z</time></trkpt>
    <trkpt lat="55.893796" lon="36.539566"><time>2026-06-14T10:04:07.285Z</time></trkpt>
    <trkpt lat="55.893783" lon="36.538651"><time>2026-06-14T10:04:08.194Z</time></trkpt>
    <trkpt lat="55.893761" lon="36.537758"><time>2026-06-14T10:04:09.102Z</time></trkpt>
    <trkpt lat="55.893729" lon="36.536887"><time>2026-06-14T10:04:10.010Z</time></trkpt>
    <trkpt lat="55.893684" lon="36.536042"><time>2026-06-14T10:04:10.919Z</time></trkpt>
    <trkpt lat="55.893625" lon="36.535224"><time>2026-06-14T10:04:11.827Z</time></trkpt>
    <trkpt lat="55.893549" lon="36.534435"><time>2026-06-14T10:04:12.735Z</time></trkpt>
    <trkpt lat="55.893454" lon="36.533675"><time>2026-06-14T10:04:13.643Z</time></trkpt>
    <trkpt lat="55.893336" lon="36.532946"><time>2026-06-14T10:04:14.552Z</time></trkpt>
    <trkpt lat="55.893192" lon="36.532250"><time>2026-06-14T10:04:15.460Z</time></trkpt>
    <trkpt lat="55.893020" lon="36.531586"><time>2026-06-14T10:04:16.368Z</time></trkpt>
    <trkpt lat="55.892817" lon="36.530956"><time>2026-06-14T10:04:17.277Z</time></trkpt>
    <trkpt lat="55.892580" lon="36.530360"><time>2026-06-14T10:04:18.185Z</time></trkpt>
    <trkpt lat="55.892306" lon="36.529799"><time>2026-06-14T10:04:19.093Z</time></trkpt>
    <trkpt lat="55.891992" lon="36.529272"><time>2026-06-14T10:04:20.002Z</time></trkpt>
    <trkpt lat="55.891639" lon="36.528780"><time>2026-06-14T10:04:20.910Z</time></trkpt>
    <trkpt lat="55.891243" lon="36.528323"><time>2026-06-14T10:04:21.818Z</time></trkpt>
    <trkpt lat="55.890804" lon="36.527901"><time>2026-06-14T10:04:22.726Z</time></trkpt>
    <trkpt lat="55.890323" lon="36.527514"><time>2026-06-14T10:04:23.635Z</time></trkpt>
    <trkpt lat="55.889800" lon="36.527162"><time>2026-06-14T10:04:24.543Z</time></trkpt>
    <trkpt lat="55.889236" lon="36.526844"><time>2026-06-14T10:04:25.451Z</time></trkpt>
    <trkpt lat="55.888632" lon="36.526560"><time>2026-06-14T10:04:26.360Z</time></trkpt>
    <trkpt lat="55.887991" lon="36.526310"><time>2026-06-14T10:04:27.268Z</time></trkpt>
    <trkpt lat="55.887317" lon="36.526095"><time>2026-06-14T10:04:28.176Z</time></trkpt>
    <trkpt lat="55.886613" lon="36.525912"><time>2026-06-14T10:04:29.085Z</time></trkpt>
    <trkpt lat="55.885883" lon="36.525764"><time>2026-06-14T10:04:29.993Z</time></trkpt>
    <trkpt lat="55.885131" lon="36.525648"><time>2026-06-14T10:04:30.901Z</time></trkpt>
    <trkpt lat="55.884363" lon="36.525566"><time>2026-06-14T10:04:31.809Z</time></trkpt>
    <trkpt lat="55.883584" lon="36.525516"><time>2026-06-14T10:04:32.718Z</time></trkpt>
    <trkpt lat="55.882800" lon="36.525500"><time>2026-06-14T10:04:33.626Z</time></trkpt>
    <trkpt lat="55.882016" lon="36.525516"><time>2026-06-14T10:04:34.534Z</time></trkpt>
    <trkpt lat="55.881237" lon="36.525566"><time>2026-06-14T10:04:35.443Z</time></trkpt>
    <trkpt lat="55.880469" lon="36.525648"><time>2026-06-14T10:04:36.351Z</time></trkpt>
    <trkpt lat="55.879717" lon="36.525764"><time>2026-06-14T10:04:37.259Z</time></trkpt>
    <trkpt lat="55.878987" lon="36.525912"><time>2026-06-14T10:04:38.167Z</time></trkpt>
    <trkpt lat="55.878283" lon="36.526095"><time>2026-06-14T10:04:39.076Z</time></trkpt>
    <trkpt lat="55.877609" lon="36.526310"><time>2026-06-14T10:04:39.984Z</time></trkpt>
    <trkpt lat="55.876968" lon="36.526560"><time>2026-06-14T10:04:40.892Z</time></trkpt>
    <trkpt lat="55.876364" lon="36.526844"><time>2026-06-14T10:04:41.801Z</time></trkpt>
    <trkpt lat="55.875800" lon="36.527162"><time>2026-06-14T10:04:42.709Z</time></trkpt>
    <trkpt lat="55.875277" lon="36.527514"><time>2026-06-14T10:04:43.617Z</time></trkpt>
    <trkpt lat="55.874796" lon="36.527901"><time>2026-06-14T10:04:44.526Z</time></trkpt>
    <trkpt lat="55.874357" lon="36.528323"><time>2026-06-14T10:04:45.434Z</time></trkpt>
    <trkpt lat="55.873961" lon="36.528780"><time>2026-06-14T10:04:46.342Z</time></trkpt>
    <trkpt lat="55.873608" lon="36.529272"><time>2026-06-14T10:04:47.251Z</time></trkpt>
    <trkpt lat="55.873294" lon="36.529799"><time>2026-06-14T10:04:48.159Z</time></trkpt>
    <trkpt lat="55.873020" lon="36.530360"><time>2026-06-14T10:04:49.067Z</time></trkpt>
    <trkpt lat="55.872783" lon="36.530956"><time>2026-06-14T10:04:49.975Z</time></trkpt>
    <trkpt lat="55.872580" lon="36.531586"><time>2026-06-14T10:04:50.884Z</time></trkpt>
    <trkpt lat="55.872408" lon="36.532250"><time>2026-06-14T10:04:51.792Z</time></trkpt>
    <trkpt lat="55.872264" lon="36.532946"><time>2026-06-14T10:04:52.700Z</time></trkpt>
    <trkpt lat="55.872146" lon="36.533675"><time>2026-06-14T10:04:53.609Z</time></trkpt>
    <trkpt lat="55.872051" lon="36.534435"><time>2026-06-14T10:04:54.517Z</time></trkpt>
    <trkpt lat="55.871975" lon="36.535224"><time>2026-06-14T10:04:55.425Z</time></trkpt>
    <trkpt lat="55.871916" lon="36.536042"><time>2026-06-14T10:04:56.334Z</time></trkpt>
    <trkpt lat="55.871871" lon="36.536887"><time>2026-06-14T10:04:57.242Z</time></trkpt>
    <trkpt lat="55.871839" lon="36.537758"><time>2026-06-14T10:04:58.150Z</time></trkpt>
    <trkpt lat="55.871817" lon="36.538651"><time>2026-06-14T10:04:59.058Z</time></trkpt>
    <trkpt lat="55.871804" lon="36.539566"><time>2026-06-14T10:04:59.967Z</time></trkpt>
    <trkpt lat="55.871800" lon="36.540500"><time>2026-06-14T10:05:00.875Z</time></trkpt>
    <trkpt lat="55.871804" lon="36.541450"><time>2026-06-14T10:05:01.783Z</time></trkpt>
    <trkpt lat="55.871817" lon="36.542414"><time>2026-06-14T10:05:02.692Z</time></trkpt>
    <trkpt lat="55.871839" lon="36.543389"><time>2026-06-14T10:05:03.600Z</time></trkpt>
    <trkpt lat="55.871871" lon="36.544372"><time>2026-06-14T10:05:04.508Z</time></trkpt>
    <trkpt lat="55.871916" lon="36.545360"><time>2026-06-14T10:05:05.417Z</time></trkpt>
    <trkpt lat="55.871975" lon="36.546349"><time>2026-06-14T10:05:06.325Z</time></trkpt>
    <trkpt lat="55.872051" lon="36.547336"><time>2026-06-14T10:05:07.233Z</time></trkpt>
    <trkpt lat="55.872146" lon="36.548318"><time>2026-06-14T10:05:08.141Z</time></trkpt>
    <trkpt lat="55.872264" lon="36.549290"><time>2026-06-14T10:05:09.050Z</time></trkpt>
    <trkpt lat="55.872408" lon="36.550250"><time>2026-06-14T10:05:09.958Z</time></trkpt>
    <trkpt lat="55.872580" lon="36.551193"><time>2026-06-14T10:05:10.866Z</time></trkpt>
    <trkpt lat="55.872783" lon="36.552117"><time>2026-06-14T10:05:11.775Z</time></trkpt>
    <trkpt lat="55.873020" lon="36.553016"><time>2026-06-14T10:05:12.683Z</time></trkpt>
    <trkpt lat="55.873294" lon="36.553888"><time>2026-06-14T10:05:13.591Z</time></trkpt>
    <trkpt lat="55.873608" lon="36.554728"><time>2026-06-14T10:05:14.500Z</time></trkpt>
    <trkpt lat="55.873961" lon="36.555533"><time>2026-06-14T10:05:15.408Z</time></trkpt>
    <trkpt lat="55.874357" lon="36.556300"><time>2026-06-14T10:05:16.316Z</time></trkpt>
    <trkpt lat="55.874796" lon="36.557026"><time>2026-06-14T10:05:17.224Z</time></trkpt>
    <trkpt lat="55.875277" lon="36.557706"><time>2026-06-14T10:05:18.133Z</time></trkpt>
    <trkpt lat="55.875800" lon="36.558338"><time>2026-06-14T10:05:19.041Z</time></trkpt>
    <trkpt lat="55.876364" lon="36.558920"><time>2026-06-14T10:05:19.949Z</time></trkpt>
    <trkpt lat="55.876968" lon="36.559448"><time>2026-06-14T10:05:20.858Z</time></trkpt>
    <trkpt lat="55.877609" lon="36.559919"><time>2026-06-14T10:05:21.766Z</time></trkpt>
    <trkpt lat="55.878283" lon="36.560333"><time>2026-06-14T10:05:22.674Z</time></trkpt>
    <trkpt lat="55.878987" lon="36.560686"><time>2026-06-14T10:05:23.583Z</time></trkpt>
    <trkpt lat="55.879717" lon="36.560977"><time>2026-06-14T10:05:24.491Z</time></trkpt>
    <trkpt lat="55.880469" lon="36.561205"><time>2026-06-14T10:05:25.399Z</time></trkpt>
    <trkpt lat="55.881237" lon="36.561369"><time>2026-06-14T10:05:26.307Z</time></trkpt>
    <trkpt lat="55.882016" lon="36.561467"><time>2026-06-14T10:05:27.216Z</time></trkpt>
    <trkpt lat="55.882800" lon="36.561500"><time>2026-06-14T10:05:28.624Z</time></trkpt>
    <trkpt lat="55.883584" lon="36.561467"><time>2026-06-14T10:05:29.532Z</time></trkpt>
    <trkpt lat="55.884363" lon="36.561369"><time>2026-06-14T10:05:30.439Z</time></trkpt>
    <trkpt lat="55.885131" lon="36.561205"><time>2026-06-14T10:05:31.347Z</time></trkpt>
    <trkpt lat="55.885883" lon="36.560977"><time>2026-06-14T10:05:32.254Z</time></trkpt>
    <trkpt lat="55.886613" lon="36.560686"><time>2026-06-14T10:05:33.162Z</time></trkpt>
    <trkpt lat="55.887317" lon="36.560333"><time>2026-06-14T10:05:34.069Z</time></trkpt>
    <trkpt lat="55.887991" lon="36.559919"><time>2026-06-14T10:05:34.977Z</time></trkpt>
    <trkpt lat="55.888632" lon="36.559448"><time>2026-06-14T10:05:35.885Z</time></trkpt>
    <trkpt lat="55.889236" lon="36.558920"><time>2026-06-14T10:05:36.792Z</time></trkpt>
    <trkpt lat="55.889800" lon="36.558338"><time>2026-06-14T10:05:37.700Z</time></trkpt>
    <trkpt lat="55.890323" lon="36.557706"><time>2026-06-14T10:05:38.607Z</time></trkpt>
    <trkpt lat="55.890804" lon="36.557026"><time>2026-06-14T10:05:39.515Z</time></trkpt>
    <trkpt lat="55.891243" lon="36.556300"><time>2026-06-14T10:05:40.422Z</time></trkpt>
    <trkpt lat="55.891639" lon="36.555533"><time>2026-06-14T10:05:41.330Z</time></trkpt>
    <trkpt lat="55.891992" lon="36.554728"><time>2026-06-14T10:05:42.238Z</time></trkpt>
    <trkpt lat="55.892306" lon="36.553888"><time>2026-06-14T10:05:43.145Z</time></trkpt>
    <trkpt lat="55.892580" lon="36.553016"><time>2026-06-14T10:05:44.053Z</time></trkpt>
    <trkpt lat="55.892817" lon="36.552117"><time>2026-06-14T10:05:44.960Z</time></trkpt>
    <trkpt lat="55.893020" lon="36.551193"><time>2026-06-14T10:05:45.868Z</time></trkpt>
    <trkpt lat="55.893192" lon="36.550250"><time>2026-06-14T10:05:46.776Z</time></trkpt>
    <trkpt lat="55.893336" lon="36.549290"><time>2026-06-14T10:05:47.683Z</time></trkpt>
    <trkpt lat="55.893454" lon="36.548318"><time>2026-06-14T10:05:48.591Z</time></trkpt>
    <trkpt lat="55.893549" lon="36.547336"><time>2026-06-14T10:05:49.498Z</time></trkpt>
    <trkpt lat="55.893625" lon="36.546349"><time>2026-06-14T10:05:50.406Z</time></trkpt>
    <trkpt lat="55.893684" lon="36.545360"><time>2026-06-14T10:05:51.313Z</time></trkpt>
    <trkpt lat="55.893729" lon="36.544372"><time>2026-06-14T10:05:52.221Z</time></trkpt>
    <trkpt lat="55.893761" lon="36.543389"><time>2026-06-14T10:05:53.129Z</time></trkpt>
    <trkpt lat="55.893783" lon="36.542414"><time>2026-06-14T10:05:54.036Z</time></trkpt>
    <trkpt lat="55.893796" lon="36.541450"><time>2026-06-14T10:05:54.944Z</time></trkpt>
    <trkpt lat="55.893800" lon="36.540500"><time>2026-06-14T10:05:55.851Z</time></trkpt>
    <trkpt lat="55.893796" lon="36.539566"><time>2026-06-14T10:05:56.759Z</time></trkpt>
    <trkpt lat="55.893783" lon="36.538651"><time>2026-06-14T10:05:57.666Z</time></trkpt>
    <trkpt lat="55.893761" lon="36.537758"><time>2026-06-14T10:05:58.574Z</time></trkpt>
    <trkpt lat="55.893729" lon="36.536887"><time>2026-06-14T10:05:59.482Z</time></trkpt>
    <trkpt lat="55.893684" lon="36.536042"><time>2026-06-14T10:06:00.389Z</time></trkpt>
    <trkpt lat="55.893625" lon="36.535224"><time>2026-06-14T10:06:01.297Z</time></trkpt>
    <trkpt lat="55.893549" lon="36.534435"><time>2026-06-14T10:06:02.204Z</time></trkpt>
    <trkpt lat="55.893454" lon="36.533675"><time>2026-06-14T10:06:03.112Z</time></trkpt>
    <trkpt lat="55.893336" lon="36.532946"><time>2026-06-14T10:06:04.019Z</time></trkpt>
    <trkpt lat="55.893192" lon="36.532250"><time>2026-06-14T10:06:04.927Z</time></trkpt>
    <trkpt lat="55.893020" lon="36.531586"><time>2026-06-14T10:06:05.835Z</time></trkpt>
    <trkpt lat="55.892817" lon="36.530956"><time>2026-06-14T10:06:06.742Z</time></trkpt>
    <trkpt lat="55.892580" lon="36.530360"><time>2026-06-14T10:06:07.650Z</time></trkpt>
    <trkpt lat="55.892306" lon="36.529799"><time>2026-06-14T10:06:08.557Z</time></trkpt>
    <trkpt lat="55.891992" lon="36.529272"><time>2026-06-14T10:06:09.465Z</time></trkpt>
    <trkpt lat="55.891639" lon="36.528780"><time>2026-06-14T10:06:10.372Z</time></trkpt>
    <trkpt lat="55.891243" lon="36.528323"><time>2026-06-14T10:06:11.280Z</time></trkpt>
    <trkpt lat="55.890804" lon="36.527901"><time>2026-06-14T10:06:12.188Z</time></trkpt>
    <trkpt lat="55.890323" lon="36.527514"><time>2026-06-14T10:06:13.095Z</time></trkpt>
    <trkpt lat="55.889800" lon="36.527162"><time>2026-06-14T10:06:14.003Z</time></trkpt>
    <trkpt lat="55.889236" lon="36.526844"><time>2026-06-14T10:06:14.910Z</time></trkpt>
    <trkpt lat="55.888632" lon="36.526560"><time>2026-06-14T10:06:15.818Z</time></trkpt>
    <trkpt lat="55.887991" lon="36.526310"><time>2026-06-14T10:06:16.725Z</time></trkpt>
    <trkpt lat="55.887317" lon="36.526095"><time>2026-06-14T10:06:17.633Z</time></trkpt>
    <trkpt lat="55.886613" lon="36.525912"><time>2026-06-14T10:06:18.541Z</time></trkpt>
    <trkpt lat="55.885883" lon="36.525764"><time>2026-06-14T10:06:19.448Z</time></trkpt>
    <trkpt lat="55.885131" lon="36.525648"><time>2026-06-14T10:06:20.356Z</time></trkpt>
    <trkpt lat="55.884363" lon="36.525566"><time>2026-06-14T10:06:21.263Z</time></trkpt>
    <trkpt lat="55.883584" lon="36.525516"><time>2026-06-14T10:06:22.171Z</time></trkpt>
    <trkpt lat="55.882800" lon="36.525500"><time>2026-06-14T10:06:23.079Z</time></trkpt>
    <trkpt lat="55.882016" lon="36.525516"><time>2026-06-14T10:06:23.986Z</time></trkpt>
    <trkpt lat="55.881237" lon="36.525566"><time>2026-06-14T10:06:24.894Z</time></trkpt>
    <trkpt lat="55.880469" lon="36.525648"><time>2026-06-14T10:06:25.801Z</time></trkpt>
    <trkpt lat="55.879717" lon="36.525764"><time>2026-06-14T10:06:26.709Z</time></trkpt>
    <trkpt lat="55.878987" lon="36.525912"><time>2026-06-14T10:06:27.616Z</time></trkpt>
    <trkpt lat="55.878283" lon="36.526095"><time>2026-06-14T10:06:28.524Z</time></trkpt>
    <trkpt lat="55.877609" lon="36.526310"><time>2026-06-14T10:06:29.432Z</time></trkpt>
    <trkpt lat="55.876968" lon="36.526560"><time>2026-06-14T10:06:30.339Z</time></trkpt>
    <trkpt lat="55.876364" lon="36.526844"><time>2026-06-14T10:06:31.247Z</time></trkpt>
    <trkpt lat="55.875800" lon="36.527162"><time>2026-06-14T10:06:32.154Z</time></trkpt>
    <trkpt lat="55.875277" lon="36.527514"><time>2026-06-14T10:06:33.062Z</time></trkpt>
    <trkpt lat="55.874796" lon="36.527901"><time>2026-06-14T10:06:33.969Z</time></trkpt>
    <trkpt lat="55.874357" lon="36.528323"><time>2026-06-14T10:06:34.877Z</time></trkpt>
    <trkpt lat="55.873961" lon="36.528780"><time>2026-06-14T10:06:35.785Z</time></trkpt>
    <trkpt lat="55.873608" lon="36.529272"><time>2026-06-14T10:06:36.692Z</time></trkpt>
    <trkpt lat="55.873294" lon="36.529799"><time>2026-06-14T10:06:37.600Z</time></trkpt>
    <trkpt lat="55.873020" lon="36.530360"><time>2026-06-14T10:06:38.507Z</time></trkpt>
    <trkpt lat="55.872783" lon="36.530956"><time>2026-06-14T10:06:39.415Z</time></trkpt>
    <trkpt lat="55.872580" lon="36.531586"><time>2026-06-14T10:06:40.322Z</time></trkpt>
    <trkpt lat="55.872408" lon="36.532250"><time>2026-06-14T10:06:41.230Z</time></trkpt>
    <trkpt lat="55.872264" lon="36.532946"><time>2026-06-14T10:06:42.138Z</time></trkpt>
    <trkpt lat="55.872146" lon="36.533675"><time>2026-06-14T10:06:43.045Z</time></trkpt>
    <trkpt lat="55.872051" lon="36.534435"><time>2026-06-14T10:06:43.953Z</time></trkpt>
    <trkpt lat="55.871975" lon="36.535224"><time>2026-06-14T10:06:44.860Z</time></trkpt>
    <trkpt lat="55.871916" lon="36.536042"><time>2026-06-14T10:06:45.768Z</time></trkpt>
    <trkpt lat="55.871871" lon="36.536887"><time>2026-06-14T10:06:46.675Z</time></trkpt>
    <trkpt lat="55.871839" lon="36.537758"><time>2026-06-14T10:06:47.583Z</time></trkpt>
    <trkpt lat="55.871817" lon="36.538651"><time>2026-06-14T10:06:48.491Z</time></trkpt>
    <trkpt lat="55.871804" lon="36.539566"><time>2026-06-14T10:06:49.398Z</time></trkpt>
    <trkpt lat="55.871800" lon="36.540500"><time>2026-06-14T10:06:50.306Z</time></trkpt>
    <trkpt lat="55.871804" lon="36.541450"><time>2026-06-14T10:06:51.213Z</time></trkpt>
    <trkpt lat="55.871817" lon="36.542414"><time>2026-06-14T10:06:52.121Z</time></trkpt>
    <trkpt lat="55.871839" lon="36.543389"><time>2026-06-14T10:06:53.028Z</time></trkpt>
    <trkpt lat="55.871871" lon="36.544372"><time>2026-06-14T10:06:53.936Z</time></trkpt>
    <trkpt lat="55.871916" lon="36.545360"><time>2026-06-14T10:06:54.844Z</time></trkpt>
    <trkpt lat="55.871975" lon="36.546349"><time>2026-06-14T10:06:55.751Z</time></trkpt>
    <trkpt lat="55.872051" lon="36.547336"><time>2026-06-14T10:06:56.659Z</time></trkpt>
    <trkpt lat="55.872146" lon="36.548318"><time>2026-06-14T10:06:57.566Z</time></trkpt>
    <trkpt lat="55.872264" lon="36.549290"><time>2026-06-14T10:06:58.474Z</time></trkpt>
    <trkpt lat="55.872408" lon="36.550250"><time>2026-06-14T10:06:59.382Z</time></trkpt>
    <trkpt lat="55.872580" lon="36.551193"><time>2026-06-14T10:07:00.289Z</time></trkpt>
    <trkpt lat="55.872783" lon="36.552117"><time>2026-06-14T10:07:01.197Z</time></trkpt>
    <trkpt lat="55.873020" lon="36.553016"><time>2026-06-14T10:07:02.104Z</time></trkpt>
    <trkpt lat="55.873294" lon="36.553888"><time>2026-06-14T10:07:03.012Z</time></trkpt>
    <trkpt lat="55.873608" lon="36.554728"><time>2026-06-14T10:07:03.919Z</time></trkpt>
    <trkpt lat="55.873961" lon="36.555533"><time>2026-06-14T10:07:04.827Z</time></trkpt>
    <trkpt lat="55.874357" lon="36.556300"><time>2026-06-14T10:07:05.735Z</time></trkpt>
    <trkpt lat="55.874796" lon="36.557026"><time>2026-06-14T10:07:06.642Z</time></trkpt>
    <trkpt lat="55.875277" lon="36.557706"><time>2026-06-14T10:07:07.550Z</time></trkpt>
    <trkpt lat="55.875800" lon="36.558338"><time>2026-06-14T10:07:08.457Z</time></trkpt>
    <trkpt lat="55.876364" lon="36.558920"><time>2026-06-14T10:07:09.365Z</time></trkpt>
    <trkpt lat="55.876968" lon="36.559448"><time>2026-06-14T10:07:10.272Z</time></trkpt>
    <trkpt lat="55.877609" lon="36.559919"><time>2026-06-14T10:07:11.180Z</time></trkpt>
    <trkpt lat="55.878283" lon="36.560333"><time>2026-06-14T10:07:12.088Z</time></trkpt>
    <trkpt lat="55.878987" lon="36.560686"><time>2026-06-14T10:07:12.995Z</time></trkpt>
    <trkpt lat="55.879717" lon="36.560977"><time>2026-06-14T10:07:13.903Z</time></trkpt>
    <trkpt lat="55.880469" lon="36.561205"><time>2026-06-14T10:07:14.810Z</time></trkpt>
    <trkpt lat="55.881237" lon="36.561369"><time>2026-06-14T10:07:15.718Z</time></trkpt>
    <trkpt lat="55.882016" lon="36.561467"><time>2026-06-14T10:07:16.625Z</time></trkpt>
  </trkseg></trk>
</gpx>