<?xml version="1.0" encoding="UTF-8"?>
<gpx version="1.1" creator="pitlane-seed">
  <trk><name>Demo</name><trkseg>
    <trkpt lat="55.882500" lon="36.561000"><time>2026-06-14T10:00:00.000Z</time></trkpt>
    <trkpt lat="55.883284" lon="36.560967"><time>2026-06-14T10:00:00.899Z</time></trkpt>
    <trkpt lat="55.884063" lon="36.560869"><time>2026-06-14T10:00:01.798Z</time></trkpt>
    <trkpt lat="55.884831" lon="36.560705"><time>2026-06-14T10:00:02.696Z</time></trkpt>
    <trkpt lat="55.885583" lon="36.560477"><time>2026-06-14T10:00:03.595Z</time></trkpt>
    <trkpt lat="55.886313" lon="36.560186"><time>2026-06-14T10:00:04.494Z</time></trkpt>
    <trkpt lat="55.887017" lon="36.559833"><time>2026-06-14T10:00:05.393Z</time></trkpt>
    <trkpt lat="55.887691" lon="36.559419"><time>2026-06-14T10:00:06.291Z</time></trkpt>
    <trkpt lat="55.888332" lon="36.558948"><time>2026-06-14T10:00:07.190Z</time></trkpt>
    <trkpt lat="55.888936" lon="36.558420"><time>2026-06-14T10:00:08.089Z</time></trkpt>
    <trkpt lat="55.889500" lon="36.557838"><time>2026-06-14T10:00:08.988Z</time></trkpt>
    <trkpt lat="55.890023" lon="36.557206"><time>2026-06-14T10:00:09.886Z</time></trkpt>
    <trkpt lat="55.890504" lon="36.556526"><time>2026-06-14T10:00:10.785Z</time></trkpt>
    <trkpt lat="55.890943" lon="36.555800"><time>2026-06-14T10:00:11.684Z</time></trkpt>
    <trkpt lat="55.891339" lon="36.555033"><time>2026-06-14T10:00:12.583Z</time></trkpt>
    <trkpt lat="55.891692" lon="36.554228"><time>2026-06-14T10:00:13.481Z</time></trkpt>
    <trkpt lat="55.892006" lon="36.553388"><time>2026-06-14T10:00:14.380Z</time></trkpt>
    <trkpt lat="55.892280" lon="36.552516"><time>2026-06-14T10:00:15.279Z</time></trkpt>
    <trkpt lat="55.892517" lon="36.551617"><time>2026-06-14T10:00:16.178Z</time></trkpt>
    <trkpt lat="55.892720" lon="36.550693"><time>2026-06-14T10:00:17.076Z</time></trkpt>
    <trkpt lat="55.892892" lon="36.549750"><time>2026-06-14T10:00:17.975Z</time></trkpt>
    <trkpt lat="55.893036" lon="36.548790"><time>2026-06-14T10:00:18.874Z</time></trkpt>
    <trkpt lat="55.893154" lon="36.547818"><time>2026-06-14T10:00:19.773Z</time></trkpt>
    <trkpt lat="55.893249" lon="36.546836"><time>2026-06-14T10:00:20.671Z</time></trkpt>
    <trkpt lat="55.893325" lon="36.545849"><time>2026-06-14T10:00:21.570Z</time></trkpt>
    <trkpt lat="55.893384" lon="36.544860"><time>2026-06-14T10:00:22.469Z</time></trkpt>
    <trkpt lat="55.893429" lon="36.543872"><time>2026-06-14T10:00:23.368Z</time></trkpt>
    <trkpt lat="55.893461" lon="36.542889"><time>2026-06-14T10:00:24.266Z</time></trkpt>
    <trkpt lat="55.893483" lon="36.541914"><time>2026-06-14T10:00:25.165Z</time></trkpt>
    <trkpt lat="55.893496" lon="36.540950"><time>2026-06-14T10:00:26.064Z</time></trkpt>
    <trkpt lat="55.893500" lon="36.540000"><time>2026-06-14T10:00:26.963Z</time></trkpt>
    <trkpt lat="55.893496" lon="36.539066"><time>2026-06-14T10:00:27.861Z</time></trkpt>
    <trkpt lat="55.893483" lon="36.538151"><time>2026-06-14T10:00:28.760Z</time></trkpt>
    <trkpt lat="55.893461" lon="36.537258"><time>2026-06-14T10:00:29.659Z</time></trkpt>
    <trkpt lat="55.893429" lon="36.536387"><time>2026-06-14T10:00:30.558Z</time></trkpt>
    <trkpt lat="55.893384" lon="36.535542"><time>2026-06-14T10:00:31.456Z</time></trkpt>
    <trkpt lat="55.893325" lon="36.534724"><time>2026-06-14T10:00:32.355Z</time></trkpt>
    <trkpt lat="55.893249" lon="36.533935"><time>2026-06-14T10:00:33.254Z</time></trkpt>
    <trkpt lat="55.893154" lon="36.533175"><time>2026-06-14T10:00:34.153Z</time></trkpt>
    <trkpt lat="55.893036" lon="36.532446"><time>2026-06-14T10:00:35.051Z</time></trkpt>
    <trkpt lat="55.892892" lon="36.531750"><time>2026-06-14T10:00:35.950Z</time></trkpt>
    <trkpt lat="55.892720" lon="36.531086"><time>2026-06-14T10:00:36.849Z</time></trkpt>
    <trkpt lat="55.892517" lon="36.530456"><time>2026-06-14T10:00:37.748Z</time></trkpt>
    <trkpt lat="55.892280" lon="36.529860"><time>2026-06-14T10:00:38.646Z</time></trkpt>
    <trkpt lat="55.892006" lon="36.529299"><time>2026-06-14T10:00:39.545Z</time></trkpt>
    <trkpt lat="55.891692" lon="36.528772"><time>2026-06-14T10:00:40.444Z</time></trkpt>
    <trkpt lat="55.891339" lon="36.528280"><time>2026-06-14T10:00:41.343Z</time></trkpt>
    <trkpt lat="55.890943" lon="36.527823"><time>2026-06-14T10:00:42.241Z</time></trkpt>
    <trkpt lat="55.890504" lon="36.527401"><time>2026-06-14T10:00:43.140Z</time></trkpt>
    <trkpt lat="55.890023" lon="36.527014"><time>2026-06-14T10:00:44.039Z</time></trkpt>
    <trkpt lat="55.889500" lon="36.526662"><time>2026-06-14T10:00:44.938Z</time></trkpt>
    <trkpt lat="55.888936" lon="36.526344"><time>2026-06-14T10:00:45.836Z</time></trkpt>
    <trkpt lat="55.888332" lon="36.526060"><time>2026-06-14T10:00:46.735Z</time></trkpt>
    <trkpt lat="55.887691" lon="36.525810"><time>2026-06-14T10:00:47.634Z</time></trkpt>
    <trkpt lat="55.887017" lon="36.525595"><time>2026-06-14T10:00:48.533Z</time></trkpt>
    <trkpt lat="55.886313" lon="36.525412"><time>2026-06-14T10:00:49.431Z</time></trkpt>
    <trkpt lat="55.885583" lon="36.525264"><time>2026-06-14T10:00:50.330Z</time></trkpt>
    <trkpt lat="55.884831" lon="36.525148"><time>2026-06-14T10:00:51.229Z</time></trkpt>
    <trkpt lat="55.884063" lon="36.525066"><time>2026-06-14T10:00:52.128Z</time></trkpt>
    <trkpt lat="55.883284" lon="36.525016"><time>2026-06-14T10:00:53.026Z</time></trkpt>
    <trkpt lat="55.882500" lon="36.525000"><time>2026-06-14T10:00:53.925Z</time></trkpt>
    <trkpt lat="55.881716" lon="36.525016"><time>2026-06-14T10:00:54.824Z</time></trkpt>
    <trkpt lat="55.880937" lon="36.525066"><time>2026-06-14T10:00:55.723Z</time></trkpt>
    <trkpt lat="55.880169" lon="36.525148"><time>2026-06-14T10:00:56.621Z</time></trkpt>
    <trkpt lat="55.879417" lon="36.525264"><time>2026-06-14T10:00:57.520Z</time></trkpt>
    <trkpt lat="55.878687" lon="36.525412"><time>2026-06-14T10:00:58.419Z</time></trkpt>
    <trkpt lat="55.877983" lon="36.525595"><time>2026-06-14T10:00:59.318Z</time></trkpt>
    <trkpt lat="55.877309" lon="36.525810"><time>2026-06-14T10:01:00.216Z</time></trkpt>
    <trkpt lat="55.876668" lon="36.526060"><time>2026-06-14T10:01:01.115Z</time></trkpt>
    <trkpt lat="55.876064" lon="36.526344"><time>2026-06-14T10:01:02.014Z</time></trkpt>
    <trkpt lat="55.875500" lon="36.526662"><time>2026-06-14T10:01:02.913Z</time></trkpt>
    <trkpt lat="55.874977" lon="36.527014"><time>2026-06-14T10:01:03.811Z</time></trkpt>
    <trkpt lat="55.874496" lon="36.527401"><time>2026-06-14T10:01:04.710Z</time></trkpt>
    <trkpt lat="55.874057" lon="36.527823"><time>2026-06-14T10:01:05.609Z</time></trkpt>
    <trkpt lat="55.873661" lon="36.528280"><time>2026-06-14T10:01:06.508Z</time></trkpt>
    <trkpt lat="55.873308" lon="36.528772"><time>2026-06-14T10:01:07.406Z</time></trkpt>
    <trkpt lat="55.872994" lon="36.529299"><time>2026-06-14T10:01:08.305Z</time></trkpt>
    <trkpt lat="55.872720" lon="36.529860"><time>2026-06-14T10:01:09.204Z</time></trkpt>
    <trkpt lat="55.872483" lon="36.530456"><time>2026-06-14T10:01:10.103Z</time></trkpt>
    <trkpt lat="55.872280" lon="36.531086"><time>2026-06-14T10:01:11.001Z</time></trkpt>
    <trkpt lat="55.872108" lon="36.531750"><time>2026-06-14T10:01:11.900Z</time></trkpt>
    <trkpt lat="55.871964" lon="36.532446"><time>2026-06-14T10:01:12.799Z</time></trkpt>
    <trkpt lat="55.871846" lon="36.533175"><time>2026-06-14T10:01:13.698Z</time></trkpt>
    <trkpt lat="55.871751" lon="36.533935"><time>2026-06-14T10:01:14.596Z</time></trkpt>
    <trkpt lat="55.871675" lon="36.534724"><time>2026-06-14T10:01:15.495Z</time></trkpt>
    <trkpt lat="55.871616" lon="36.535542"><time>2026-06-14T10:01:16.394Z</time></trkpt>
    <trkpt lat="55.871571" lon="36.536387"><time>2026-06-14T10:01:17.293Z</time></trkpt>
    <trkpt lat="55.871539" lon="36.537258"><time>2026-06-14T10:01:18.191Z</time></trkpt>
    <trkpt lat="55.871517" lon="36.538151"><time>2026-06-14T10:01:19.090Z</time></trkpt>
    <trkpt lat="55.871504" lon="36.539066"><time>2026-06-14T10:01:19.989Z</time></trkpt>
    <trkpt lat="55.871500" lon="36.540000"><time>2026-06-14T10:01:20.888Z</time></trkpt>
    <trkpt lat="55.871504" lon="36.540950"><time>2026-06-14T10:01:21.786Z</time></trkpt>
    <trkpt lat="55.871517" lon="36.541914"><time>2026-06-14T10:01:22.685Z</time></trkpt>
    <trkpt lat="55.871539" lon="36.542889"><time>2026-06-14T10:01:23.584Z</time></trkpt>
    <trkpt lat="55.871571" lon="36.543872"><time>2026-06-14T10:01:24.483Z</time></trkpt>
    <trkpt lat="55.871616" lon="36.544860"><time>2026-06-14T10:01:25.381Z</time></trkpt>
    <trkpt lat="55.871675" lon="36.545849"><time>2026-06-14T10:01:26.280Z</time></trkpt>
    <trkpt lat="55.871751" lon="36.546836"><time>2026-06-14T10:01:27.179Z</time></trkpt>
    <trkpt lat="55.871846" lon="36.547818"><time>2026-06-14T10:01:28.078Z</time></trkpt>
    <trkpt lat="55.871964" lon="36.548790"><time>2026-06-14T10:01:28.976Z</time></trkpt>
    <trkpt lat="55.872108" lon="36.549750"><time>2026-06-14T10:01:29.875Z</time></trkpt>
    <trkpt lat="55.872280" lon="36.550693"><time>2026-06-14T10:01:30.774Z</time></trkpt>
    <trkpt lat="55.872483" lon="36.551617"><time>2026-06-14T10:01:31.673Z</time></trkpt>
    <trkpt lat="55.872720" lon="36.552516"><time>2026-06-14T10:01:32.571Z</time></trkpt>
    <trkpt lat="55.872994" lon="36.553388"><time>2026-06-14T10:01:33.470Z</time></trkpt>
    <trkpt lat="55.873308" lon="36.554228"><time>2026-06-14T10:01:34.369Z</time></trkpt>
    <trkpt lat="55.873661" lon="36.555033"><time>2026-06-14T10:01:35.268Z</time></trkpt>
    <trkpt lat="55.874057" lon="36.555800"><time>2026-06-14T10:01:36.166Z</time></trkpt>
    <trkpt lat="55.874496" lon="36.556526"><time>2026-06-14T10:01:37.065Z</time></trkpt>
    <trkpt lat="55.874977" lon="36.557206"><time>2026-06-14T10:01:37.964Z</time></trkpt>
    <trkpt lat="55.875500" lon="36.557838"><time>2026-06-14T10:01:38.863Z</time></trkpt>
    <trkpt lat="55.876064" lon="36.558420"><time>2026-06-14T10:01:39.761Z</time></trkpt>
    <trkpt lat="55.876668" lon="36.558948"><time>2026-06-14T10:01:40.660Z</time></trkpt>
    <trkpt lat="55.877309" lon="36.559419"><time>2026-06-14T10:01:41.559Z</time></trkpt>
    <trkpt lat="55.877983" lon="36.559833"><time>2026-06-14T10:01:42.458Z</time></trkpt>
    <trkpt lat="55.878687" lon="36.560186"><time>2026-06-14T10:01:43.356Z</time></trkpt>
    <trkpt lat="55.879417" lon="36.560477"><time>2026-06-14T10:01:44.255Z</time></trkpt>
    <trkpt lat="55.880169" lon="36.560705"><time>2026-06-14T10:01:45.154Z</time></trkpt>
    <trkpt lat="55.880937" lon="36.560869"><time>2026-06-14T10:01:46.053Z</time></trkpt>
    <trkpt lat="55.881716" lon="36.560967"><time>2026-06-14T10:01:46.951Z</time></trkpt>
    <trkpt lat="55.882500" lon="36.561000"><time>2026-06-14T10:01:48.350Z</time></trkpt>
    <trkpt lat="55.883284" lon="36.560967"><time>2026-06-14T10:01:49.252Z</time></trkpt>
    <trkpt lat="55.884063" lon="36.560869"><time>2026-06-14T10:01:50.154Z</time></trkpt>
    <trkpt lat="55.884831" lon="36.560705"><time>2026-06-14T10:01:51.056Z</time></trkpt>
    <trkpt lat="55.885583" lon="36.560477"><time>2026-06-14T10:01:51.958Z</time></trkpt>
    <trkpt lat="55.886313" lon="36.560186"><time>2026-06-14T10:01:52.859Z</time></trkpt>
    <trkpt lat="55.887017" lon="36.559833"><time>2026-06-14T10:01:53.761Z</time></trkpt>
    <trkpt lat="55.887691" lon="36.559419"><time>2026-06-14T10:01:54.663Z</time></trkpt>
    <trkpt lat="55.888332" lon="36.558948"><time>2026-06-14T10:01:55.565Z</time></trkpt>
    <trkpt lat="55.888936" lon="36.558420"><time>2026-06-14T10:01:56.467Z</time></trkpt>
    <trkpt lat="55.889500" lon="36.557838"><time>2026-06-14T10:01:57.369Z</time></trkpt>
    <trkpt lat="55.890023" lon="36.557206"><time>2026-06-14T10:01:58.271Z</time></trkpt>
    <trkpt lat="55.890504" lon="36.556526"><time>2026-06-14T10:01:59.173Z</time></trkpt>
    <trkpt lat="55.890943" lon="36.555800"><time>2026-06-14T10:02:00.075Z</time></trkpt>
    <trkpt lat="55.891339" lon="36.555033"><time>2026-06-14T10:02:00.976Z</time></trkpt>
    <trkpt lat="55.891692" lon="36.554228"><time>2026-06-14T10:02:01.878Z</time></trkpt>
    <trkpt lat="55.892006" lon="36.553388"><time>2026-06-14T10:02:02.780Z</time></trkpt>
    <trkpt lat="55.892280" lon="36.552516"><time>2026-06-14T10:02:03.682Z</time></trkpt>
    <trkpt lat="55.892517" lon="36.551617"><time>2026-06-14T10:02:04.584Z</time></trkpt>
    <trkpt lat="55.892720" lon="36.550693"><time>2026-06-14T10:02:05.486Z</time></trkpt>
    <trkpt lat="55.892892" lon="36.549750"><time>2026-06-14T10:02:06.388Z</time></trkpt>
    <trkpt lat="55.893036" lon="36.548790"><time>2026-06-14T10:02:07.290Z</time></trkpt>
    <trkpt lat="55.893154" lon="36.547818"><time>2026-06-14T10:02:08.192Z</time></trkpt>
    <trkpt lat="55.893249" lon="36.546836"><time>2026-06-14T10:02:09.094Z</time></trkpt>
    <trkpt lat="55.893325" lon="36.545849"><time>2026-06-14T10:02:09.995Z</time></trkpt>
    <trkpt lat="55.893384" lon="36.544860"><time>2026-06-14T10:02:10.897Z</time></trkpt>
    <trkpt lat="55.893429" lon="36.543872"><time>2026-06-14T10:02:11.799Z</time></trkpt>
    <trkpt lat="55.893461" lon="36.542889"><time>2026-06-14T10:02:12.701Z</time></trkpt>
    <trkpt lat="55.893483" lon="36.541914"><time>2026-06-14T10:02:13.603Z</time></trkpt>
    <trkpt lat="55.893496" lon="36.540950"><time>2026-06-14T10:02:14.505Z</time></trkpt>
    <trkpt lat="55.893500" lon="36.540000"><time>2026-06-14T10:02:15.407Z</time></trkpt>
    <trkpt lat="55.893496" lon="36.539066"><time>2026-06-14T10:02:16.309Z</time></trkpt>
    <trkpt lat="55.893483" lon="36.538151"><time>2026-06-14T10:02:17.211Z</time></trkpt>
    <trkpt lat="55.893461" lon="36.537258"><time>2026-06-14T10:02:18.112Z</time></trkpt>
    <trkpt lat="55.893429" lon="36.536387"><time>2026-06-14T10:02:19.014Z</time></trkpt>
    <trkpt lat="55.893384" lon="36.535542"><time>2026-06-14T10:02:19.916Z</time></trkpt>
    <trkpt lat="55.893325" lon="36.534724"><time>2026-06-14T10:02:20.818Z</time></trkpt>
    <trkpt lat="55.893249" lon="36.533935"><time>2026-06-14T10:02:21.720Z</time></trkpt>
    <trkpt lat="55.893154" lon="36.533175"><time>2026-06-14T10:02:22.622Z</time></trkpt>
    <trkpt lat="55.893036" lon="36.532446"><time>2026-06-14T10:02:23.524Z</time></trkpt>
    <trkpt lat="55.892892" lon="36.531750"><time>2026-06-14T10:02:24.426Z</time></trkpt>
    <trkpt lat="55.892720" lon="36.531086"><time>2026-06-14T10:02:25.328Z</time></trkpt>
    <trkpt lat="55.892517" lon="36.530456"><time>2026-06-14T10:02:26.229Z</time></trkpt>
    <trkpt lat="55.892280" lon="36.529860"><time>2026-06-14T10:02:27.131Z</time></trkpt>
    <trkpt lat="55.892006" lon="36.529299"><time>2026-06-14T10:02:28.033Z</time></trkpt>
    <trkpt lat="55.891692" lon="36.528772"><time>2026-06-14T10:02:28.935Z</time></trkpt>
    <trkpt lat="55.891339" lon="36.528280"><time>2026-06-14T10:02:29.837Z</time></trkpt>
    <trkpt lat="55.890943" lon="36.527823"><time>2026-06-14T10:02:30.739Z</time></trkpt>
    <trkpt lat="55.890504" lon="36.527401"><time>2026-06-14T10:02:31.641Z</time></trkpt>
    <trkpt lat="55.890023" lon="36.527014"><time>2026-06-14T10:02:32.543Z</time></trkpt>
    <trkpt lat="55.889500" lon="36.526662"><time>2026-06-14T10:02:33.445Z</time></trkpt>
    <trkpt lat="55.888936" lon="36.526344"><time>2026-06-14T10:02:34.346Z</time></trkpt>
    <trkpt lat="55.888332" lon="36.526060"><time>2026-06-14T10:02:35.248Z</time></trkpt>
    <trkpt lat="55.887691" lon="36.525810"><time>2026-06-14T10:02:36.150Z</time></trkpt>
    <trkpt lat="55.887017" lon="36.525595"><time>2026-06-14T10:02:37.052Z</time></trkpt>
    <trkpt lat="55.886313" lon="36.525412"><time>2026-06-14T10:02:37.954Z</time></trkpt>
    <trkpt lat="55.885583" lon="36.525264"><time>2026-06-14T10:02:38.856Z</time></trkpt>
    <trkpt lat="55.884831" lon="36.525148"><time>2026-06-14T10:02:39.758Z</time></trkpt>
    <trkpt lat="55.884063" lon="36.525066"><time>2026-06-14T10:02:40.660Z</time></trkpt>
    <trkpt lat="55.883284" lon="36.525016"><time>2026-06-14T10:02:41.562Z</time></trkpt>
    <trkpt lat="55.882500" lon="36.525000"><time>2026-06-14T10:02:42.464Z</time></trkpt>
    <trkpt lat="55.881716" lon="36.525016"><time>2026-06-14T10:02:43.365Z</time></trkpt>
    <trkpt lat="55.880937" lon="36.525066"><time>2026-06-14T10:02:44.267Z</time></trkpt>
    <trkpt lat="55.880169" lon="36.525148"><time>2026-06-14T10:02:45.169Z</time></trkpt>
    <trkpt lat="55.879417" lon="36.525264"><time>2026-06-14T10:02:46.071Z</time></trkpt>
    <trkpt lat="55.878687" lon="36.525412"><time>2026-06-14T10:02:46.973Z</time></trkpt>
    <trkpt lat="55.877983" lon="36.525595"><time>2026-06-14T10:02:47.875Z</time></trkpt>
    <trkpt lat="55.877309" lon="36.525810"><time>2026-06-14T10:02:48.777Z</time></trkpt>
    <trkpt lat="55.876668" lon="36.526060"><time>2026-06-14T10:02:49.679Z</time></trkpt>
    <trkpt lat="55.876064" lon="36.526344"><time>2026-06-14T10:02:50.581Z</time></trkpt>
    <trkpt lat="55.875500" lon="36.526662"><time>2026-06-14T10:02:51.482Z</time></trkpt>
    <trkpt lat="55.874977" lon="36.527014"><time>2026-06-14T10:02:52.384Z</time></trkpt>
    <trkpt lat="55.874496" lon="36.527401"><time>2026-06-14T10:02:53.286Z</time></trkpt>
    <trkpt lat="55.874057" lon="36.527823"><time>2026-06-14T10:02:54.188Z</time></trkpt>
    <trkpt lat="55.873661" lon="36.528280"><time>2026-06-14T10:02:55.090Z</time></trkpt>
    <trkpt lat="55.873308" lon="36.528772"><time>2026-06-14T10:02:55.992Z</time></trkpt>
    <trkpt lat="55.872994" lon="36.529299"><time>2026-06-14T10:02:56.894Z</time></trkpt>
    <trkpt lat="55.872720" lon="36.529860"><time>2026-06-14T10:02:57.796Z</time></trkpt>
    <trkpt lat="55.872483" lon="36.530456"><time>2026-06-14T10:02:58.698Z</time></trkpt>
    <trkpt lat="55.872280" lon="36.531086"><time>2026-06-14T10:02:59.599Z</time></trkpt>
    <trkpt lat="55.872108" lon="36.531750"><time>2026-06-14T10:03:00.501Z</time></trkpt>
    <trkpt lat="55.871964" lon="36.532446"><time>2026-06-14T10:03:01.403Z</time></trkpt>
    <trkpt lat="55.871846" lon="36.533175"><time>2026-06-14T10:03:02.305Z</time></trkpt>
    <trkpt lat="55.871751" lon="36.533935"><time>2026-06-14T10:03:03.207Z</time></trkpt>
    <trkpt lat="55.871675" lon="36.534724"><time>2026-06-14T10:03:04.109Z</time></trkpt>
    <trkpt lat="55.871616" lon="36.535542"><time>2026-06-14T10:03:05.011Z</time></trkpt>
    <trkpt lat="55.871571" lon="36.536387"><time>2026-06-14T10:03:05.913Z</time></trkpt>
    <trkpt lat="55.871539" lon="36.537258"><time>2026-06-14T10:03:06.815Z</time></trkpt>
    <trkpt lat="55.871517" lon="36.538151"><time>2026-06-14T10:03:07.716Z</time></trkpt>
    <trkpt lat="55.871504" lon="36.539066"><time>2026-06-14T10:03:08.618Z</time></trkpt>
    <trkpt lat="55.871500" lon="36.540000"><time>2026-06-14T10:03:09.520Z</time></trkpt>
    <trkpt lat="55.871504" lon="36.540950"><time>2026-06-14T10:03:10.422Z</time></trkpt>
    <trkpt lat="55.871517" lon="36.541914"><time>2026-06-14T10:03:11.324Z</time></trkpt>
    <trkpt lat="55.871539" lon="36.542889"><time>2026-06-14T10:03:12.226Z</time></trkpt>
    <trkpt lat="55.871571" lon="36.543872"><time>2026-06-14T10:03:13.128Z</time></trkpt>
    <trkpt lat="55.871616" lon="36.544860"><time>2026-06-14T10:03:14.030Z</time></trkpt>
    <trkpt lat="55.871675" lon="36.545849"><time>2026-06-14T10:03:14.932Z</time></trkpt>
    <trkpt lat="55.871751" lon="36.546836"><time>2026-06-14T10:03:15.833Z</time></trkpt>
    <trkpt lat="55.871846" lon="36.547818"><time>2026-06-14T10:03:16.735Z</time></trkpt>
    <trkpt lat="55.871964" lon="36.548790"><time>2026-06-14T10:03:17.637Z</time></trkpt>
    <trkpt lat="55.872108" lon="36.549750"><time>2026-06-14T10:03:18.539Z</time></trkpt>
    <trkpt lat="55.872280" lon="36.550693"><time>2026-06-14T10:03:19.441Z</time></trkpt>
    <trkpt lat="55.872483" lon="36.551617"><time>2026-06-14T10:03:20.343Z</time></trkpt>
    <trkpt lat="55.872720" lon="36.552516"><time>2026-06-14T10:03:21.245Z</time></trkpt>
    <trkpt lat="55.872994" lon="36.553388"><time>2026-06-14T10:03:22.147Z</time></trkpt>
    <trkpt lat="55.873308" lon="36.554228"><time>2026-06-14T10:03:23.049Z</time></trkpt>
    <trkpt lat="55.873661" lon="36.555033"><time>2026-06-14T10:03:23.951Z</time></trkpt>
    <trkpt lat="55.874057" lon="36.555800"><time>2026-06-14T10:03:24.852Z</time></trkpt>
    <trkpt lat="55.874496" lon="36.556526"><time>2026-06-14T10:03:25.754Z</time></trkpt>
    <trkpt lat="55.874977" lon="36.557206"><time>2026-06-14T10:03:26.656Z</time></trkpt>
    <trkpt lat="55.875500" lon="36.557838"><time>2026-06-14T10:03:27.558Z</time></trkpt>
    <trkpt lat="55.876064" lon="36.558420"><time>2026-06-14T10:03:28.460Z</time></trkpt>
    <trkpt lat="55.876668" lon="36.558948"><time>2026-06-14T10:03:29.362Z</time></trkpt>
    <trkpt lat="55.877309" lon="36.559419"><time>2026-06-14T10:03:30.264Z</time></trkpt>
    <trkpt lat="55.877983" lon="36.559833"><time>2026-06-14T10:03:31.166Z</time></trkpt>
    <trkpt lat="55.878687" lon="36.560186"><time>2026-06-14T10:03:32.068Z</time></trkpt>
    <trkpt lat="55.879417" lon="36.560477"><time>2026-06-14T10:03:32.969Z</time></trkpt>
    <trkpt lat="55.880169" lon="36.560705"><time>2026-06-14T10:03:33.871Z</time></trkpt>
    <trkpt lat="55.880937" lon="36.560869"><time>2026-06-14T10:03:34.773Z</time></trkpt>
    <trkpt lat="55.881716" lon="36.560967"><time>2026-06-14T10:03:35.675Z</time></trkpt>
    <trkpt lat="55.882500" lon="36.561000"><time>2026-06-14T10:03:37.077Z</time></trkpt>
    <trkpt lat="55.883284" lon="36.560967"><time>2026-06-14T10:03:37.976Z</time></trkpt>
    <trkpt lat="55.884063" lon="36.560869"><time>2026-06-14T10:03:38.876Z</time></trkpt>
    <trkpt lat="55.884831" lon="36.560705"><time>2026-06-14T10:03:39.775Z</time></trkpt>
    <trkpt lat="55.885583" lon="36.560477"><time>2026-06-14T10:03:40.675Z</time></trkpt>
    <trkpt lat="55.886313" lon="36.560186"><time>2026-06-14T10:03:41.574Z</time></trkpt>
    <trkpt lat="55.887017" lon="36.559833"><time>2026-06-14T10:03:42.474Z</time></trkpt>
    <trkpt lat="55.887691" lon="36.559419"><time>2026-06-14T10:03:43.373Z</time></trkpt>
    <trkpt lat="55.888332" lon="36.558948"><time>2026-06-14T10:03:44.273Z</time></trkpt>
    <trkpt lat="55.888936" lon="36.558420"><time>2026-06-14T10:03:45.172Z</time></trkpt>
    <trkpt lat="55.889500" lon="36.557838"><time>2026-06-14T10:03:46.071Z</time></trkpt>
    <trkpt lat="55.890023" lon="36.557206"><time>2026-06-14T10:03:46.971Z</time></trkpt>
    <trkpt lat="55.890504" lon="36.556526"><time>2026-06-14T10:03:47.870Z</time></trkpt>
    <trkpt lat="55.890943" lon="36.555800"><time>2026-06-14T10:03:48.770Z</time></trkpt>
    <trkpt lat="55.891339" lon="36.555033"><time>2026-06-14T10:03:49.669Z</time></trkpt>
    <trkpt lat="55.891692" lon="36.554228"><time>2026-06-14T10:03:50.569Z</time></trkpt>
    <trkpt lat="55.892006" lon="36.553388"><time>2026-06-14T10:03:51.468Z</time></trkpt>
    <trkpt lat="55.892280" lon="36.552516"><time>2026-06-14T10:03:52.368Z</time></trkpt>
    <trkpt lat="55.892517" lon="36.551617"><time>2026-06-14T10:03:53.267Z</time></trkpt>
    <trkpt lat="55.892720" lon="36.550693"><time>2026-06-14T10:03:54.166Z</time></trkpt>
    <trkpt lat="55.892892" lon="36.549750"><time>2026-06-14T10:03:55.066Z</time></trkpt>
    <trkpt lat="55.893036" lon="36.548790"><time>2026-06-14T10:03:55.965Z</time></trkpt>
    <trkpt lat="55.893154" lon="36.547818"><time>2026-06-14T10:03:56.865Z</time></trkpt>
    <trkpt lat="55.893249" lon="36.546836"><time>2026-06-14T10:03:57.764Z</time></trkpt>
    <trkpt lat="55.893325" lon="36.545849"><time>2026-06-14T10:03:58.664Z</time></trkpt>
    <trkpt lat="55.893384" lon="36.544860"><time>2026-06-14T10:03:59.563Z</time></trkpt>
    <trkpt lat="55.893429" lon="36.543872"><time>2026-06-14T10:04:00.462Z</time></trkpt>
    <trkpt lat="55.893461" lon="36.542889"><time>2026-06-14T10:04:01.362Z</time></trkpt>
    <trkpt lat="55.893483" lon="36.541914"><time>2026-06-14T10:04:02.261Z</time></trkpt>
    <trkpt lat="55.893496" lon="36.540950"><time>2026-06-14T10:04:03.161Z</time></trkpt>
    <trkpt lat="55.893500" lon="36.540000"><time>2026-06-14T10:04:04.060Z</time></trkpt>
    <trkpt lat="55.893496" lon="36.539066"><time>2026-06-14T10:04:04.960Z</time></trkpt>
    <trkpt lat="55.893483" lon="36.538151"><time>2026-06-14T10:04:05.859Z</time></trkpt>
    <trkpt lat="55.893461" lon="36.537258"><time>2026-06-14T10:04:06.759Z</time></trkpt>
    <trkpt lat="55.893429" lon="36.536387"><time>2026-06-14T10:04:07.658Z</time></trkpt>
    <trkpt lat="55.893384" lon="36.535542"><time>2026-06-14T10:04:08.557Z</time></trkpt>
    <trkpt lat="55.893325" lon="36.534724"><time>2026-06-14T10:04:09.457Z</time></trkpt>
    <trkpt lat="55.893249" lon="36.533935"><time>2026-06-14T10:04:10.356Z</time></trkpt>
    <trkpt lat="55.893154" lon="36.533175"><time>2026-06-14T10:04:11.256Z</time></trkpt>
    <trkpt lat="55.893036" lon="36.532446"><time>2026-06-14T10:04:12.155Z</time></trkpt>
    <trkpt lat="55.892892" lon="36.531750"><time>2026-06-14T10:04:13.055Z</time></trkpt>
    <trkpt lat="55.892720" lon="36.531086"><time>2026-06-14T10:04:13.954Z</time></trkpt>
    <trkpt lat="55.892517" lon="36.530456"><time>2026-06-14T10:04:14.854Z</time></trkpt>
    <trkpt lat="55.892280" lon="36.529860"><time>2026-06-14T10:04:15.753Z</time></trkpt>
    <trkpt lat="55.892006" lon="36.529299"><time>2026-06-14T10:04:16.652Z</time></trkpt>
    <trkpt lat="55.891692" lon="36.528772"><time>2026-06-14T10:04:17.552Z</time></trkpt>
    <trkpt lat="55.891339" lon="36.528280"><time>2026-06-14T10:04:18.451Z</time></trkpt>
    <trkpt lat="55.890943" lon="36.527823"><time>2026-06-14T10:04:19.351Z</time></trkpt>
    <trkpt lat="55.890504" lon="36.527401"><time>2026-06-14T10:04:20.250Z</time></trkpt>
    <trkpt lat="55.890023" lon="36.527014"><time>2026-06-14T10:04:21.150Z</time></trkpt>
    <trkpt lat="55.889500" lon="36.526662"><time>2026-06-14T10:04:22.049Z</time></trkpt>
    <trkpt lat="55.888936" lon="36.526344"><time>2026-06-14T10:04:22.949Z</time></trkpt>
    <trkpt lat="55.888332" lon="36.526060"><time>2026-06-14T10:04:23.848Z</time></trkpt>
    <trkpt lat="55.887691" lon="36.525810"><time>2026-06-14T10:04:24.747Z</time></trkpt>
    <trkpt lat="55.887017" lon="36.525595"><time>2026-06-14T10:04:25.647Z</time></trkpt>
    <trkpt lat="55.886313" lon="36.525412"><time>2026-06-14T10:04:26.546Z</time></trkpt>
    <trkpt lat="55.885583" lon="36.525264"><time>2026-06-14T10:04:27.446Z</time></trkpt>
    <trkpt lat="55.884831" lon="36.525148"><time>2026-06-14T10:04:28.345Z</time></trkpt>
    <trkpt lat="55.884063" lon="36.525066"><time>2026-06-14T10:04:29.245Z</time></trkpt>
    <trkpt lat="55.883284" lon="36.525016"><time>2026-06-14T10:04:30.144Z</time></trkpt>
    <trkpt lat="55.882500" lon="36.525000"><time>2026-06-14T10:04:31.044Z</time></trkpt>
    <trkpt lat="55.881716" lon="36.525016"><time>2026-06-14T10:04:31.943Z</time></trkpt>
    <trkpt lat="55.880937" lon="36.525066"><time>2026-06-14T10:04:32.842Z</time></trkpt>
    <trkpt lat="55.880169" lon="36.525148"><time>2026-06-14T10:04:33.742Z</time></trkpt>
    <trkpt lat="55.879417" lon="36.525264"><time>2026-06-14T10:04:34.641Z</time></trkpt>
    <trkpt lat="55.878687" lon="36.525412"><time>2026-06-14T10:04:35.541Z</time></trkpt>
    <trkpt lat="55.877983" lon="36.525595"><time>2026-06-14T10:04:36.440Z</time></trkpt>
    <trkpt lat="55.877309" lon="36.525810"><time>2026-06-14T10:04:37.340Z</time></trkpt>
    <trkpt lat="55.876668" lon="36.526060"><time>2026-06-14T10:04:38.239Z</time></trkpt>
    <trkpt lat="55.876064" lon="36.526344"><time>2026-06-14T10:04:39.138Z</time></trkpt>
    <trkpt lat="55.875500" lon="36.526662"><time>2026-06-14T10:04:40.038Z</time></trkpt>
    <trkpt lat="55.874977" lon="36.527014"><time>2026-06-14T10:04:40.937Z</time></trkpt>
    <trkpt lat="55.874496" lon="36.527401"><time>2026-06-14T10:04:41.837Z</time></trkpt>
    <trkpt lat="55.874057" lon="36.527823"><time>2026-06-14T10:04:42.736Z</time></trkpt>
    <trkpt lat="55.873661" lon="36.528280"><time>2026-06-14T10:04:43.636Z</time></trkpt>
    <trkpt lat="55.873308" lon="36.528772"><time>2026-06-14T10:04:44.535Z</time></trkpt>
    <trkpt lat="55.872994" lon="36.529299"><time>2026-06-14T10:04:45.435Z</time></trkpt>
    <trkpt lat="55.872720" lon="36.529860"><time>2026-06-14T10:04:46.334Z</time></trkpt>
    <trkpt lat="55.872483" lon="36.530456"><time>2026-06-14T10:04:47.233Z</time></trkpt>
    <trkpt lat="55.872280" lon="36.531086"><time>2026-06-14T10:04:48.133Z</time></trkpt>
    <trkpt lat="55.872108" lon="36.531750"><time>2026-06-14T10:04:49.032Z</time></trkpt>
    <trkpt lat="55.871964" lon="36.532446"><time>2026-06-14T10:04:49.932Z</time></trkpt>
    <trkpt lat="55.871846" lon="36.533175"><time>2026-06-14T10:04:50.831Z</time></trkpt>
    <trkpt lat="55.871751" lon="36.533935"><time>2026-06-14T10:04:51.731Z</time></trkpt>
    <trkpt lat="55.871675" lon="36.534724"><time>2026-06-14T10:04:52.630Z</time></trkpt>
    <trkpt lat="55.871616" lon="36.535542"><time>2026-06-14T10:04:53.530Z</time></trkpt>
    <trkpt lat="55.871571" lon="36.536387"><time>2026-06-14T10:04:54.429Z</time></trkpt>
    <trkpt lat="55.871539" lon="36.537258"><time>2026-06-14T10:04:55.328Z</time></trkpt>
    <trkpt lat="55.871517" lon="36.538151"><time>2026-06-14T10:04:56.228Z</time></trkpt>
    <trkpt lat="55.871504" lon="36.539066"><time>2026-06-14T10:04:57.127Z</time></trkpt>
    <trkpt lat="55.871500" lon="36.540000"><time>2026-06-14T10:04:58.027Z</time></trkpt>
    <trkpt lat="55.871504" lon="36.540950"><time>2026-06-14T10:04:58.926Z</time></trkpt>
    <trkpt lat="55.871517" lon="36.541914"><time>2026-06-14T10:04:59.826Z</time></trkpt>
    <trkpt lat="55.871539" lon="36.542889"><time>2026-06-14T10:05:00.725Z</time></trkpt>
    <trkpt lat="55.871571" lon="36.543872"><time>2026-06-14T10:05:01.625Z</time></trkpt>
    <trkpt lat="55.871616" lon="36.544860"><time>2026-06-14T10:05:02.524Z</time></trkpt>
    <trkpt lat="55.871675" lon="36.545849"><time>2026-06-14T10:05:03.423Z</time></trkpt>
    <trkpt lat="55.871751" lon="36.546836"><time>2026-06-14T10:05:04.323Z</time></trkpt>
    <trkpt lat="55.871846" lon="36.547818"><time>2026-06-14T10:05:05.222Z</time></trkpt>
    <trkpt lat="55.871964" lon="36.548790"><time>2026-06-14T10:05:06.122Z</time></trkpt>
    <trkpt lat="55.872108" lon="36.549750"><time>2026-06-14T10:05:07.021Z</time></trkpt>
    <trkpt lat="55.872280" lon="36.550693"><time>2026-06-14T10:05:07.921Z</time></trkpt>
    <trkpt lat="55.872483" lon="36.551617"><time>2026-06-14T10:05:08.820Z</time></trkpt>
    <trkpt lat="55.872720" lon="36.552516"><time>2026-06-14T10:05:09.719Z</time></trkpt>
    <trkpt lat="55.872994" lon="36.553388"><time>2026-06-14T10:05:10.619Z</time></trkpt>
    <trkpt lat="55.873308" lon="36.554228"><time>2026-06-14T10:05:11.518Z</time></trkpt>
    <trkpt lat="55.873661" lon="36.555033"><time>2026-06-14T10:05:12.418Z</time></trkpt>
    <trkpt lat="55.874057" lon="36.555800"><time>2026-06-14T10:05:13.317Z</time></trkpt>
    <trkpt lat="55.874496" lon="36.556526"><time>2026-06-14T10:05:14.217Z</time></trkpt>
    <trkpt lat="55.874977" lon="36.557206"><time>2026-06-14T10:05:15.116Z</time></trkpt>
    <trkpt lat="55.875500" lon="36.557838"><time>2026-06-14T10:05:16.016Z</time></trkpt>
    <trkpt lat="55.876064" lon="36.558420"><time>2026-06-14T10:05:16.915Z</time></trkpt>
    <trkpt lat="55.876668" lon="36.558948"><time>2026-06-14T10:05:17.814Z</time></trkpt>
    <trkpt lat="55.877309" lon="36.559419"><time>2026-06-14T10:05:18.714Z</time></trkpt>
    <trkpt lat="55.877983" lon="36.559833"><time>2026-06-14T10:05:19.613Z</time></trkpt>
    <trkpt lat="55.878687" lon="36.560186"><time>2026-06-14T10:05:20.513Z</time></trkpt>
    <trkpt lat="55.879417" lon="36.560477"><time>2026-06-14T10:05:21.412Z</time></trkpt>
    <trkpt lat="55.880169" lon="36.560705"><time>2026-06-14T10:05:22.312Z</time></trkpt>
    <trkpt lat="55.880937" lon="36.560869"><time>2026-06-14T10:05:23.211Z</time></trkpt>
    <trkpt lat="55.881716" lon="36.560967"><time>2026-06-14T10:05:24.111Z</time></trkpt>
    <trkpt lat="55.882500" lon="36.561000"><time>2026-06-14T10:05:25.510Z</time></trkpt>
    <trkpt lat="55.883284" lon="36.560967"><time>2026-06-14T10:05:26.408Z</time></trkpt>
    <trkpt lat="55.884063" lon="36.560869"><time>2026-06-14T10:05:27.307Z</time></trkpt>
    <trkpt lat="55.884831" lon="36.560705"><time>2026-06-14T10:05:28.205Z</time></trkpt>
    <trkpt lat="55.885583" lon="36.560477"><time>2026-06-14T10:05:29.104Z</time></trkpt>
    <trkpt lat="55.886313" lon="36.560186"><time>2026-06-14T10:05:30.002Z</time></trkpt>
    <trkpt lat="55.887017" lon="36.559833"><time>2026-06-14T10:05:30.901Z</time></trkpt>
    <trkpt lat="55.887691" lon="36.559419"><time>2026-06-14T10:05:31.799Z</time></trkpt>
    <trkpt lat="55.888332" lon="36.558948"><time>2026-06-14T10:05:32.697Z</time></trkpt>
    <trkpt lat="55.888936" lon="36.558420"><time>2026-06-14T10:05:33.596Z</time></trkpt>
    <trkpt lat="55.889500" lon="36.557838"><time>2026-06-14T10:05:34.494Z</time></trkpt>
    <trkpt lat="55.890023" lon="36.557206"><time>2026-06-14T10:05:35.393Z</time></trkpt>
    <trkpt lat="55.890504" lon="36.556526"><time>2026-06-14T10:05:36.291Z</time></trkpt>
    <trkpt lat="55.890943" lon="36.555800"><time>2026-06-14T10:05:37.190Z</time></trkpt>
    <trkpt lat="55.891339" lon="36.555033"><time>2026-06-14T10:05:38.088Z</time></trkpt>
    <trkpt lat="55.891692" lon="36.554228"><time>2026-06-14T10:05:38.987Z</time></trkpt>
    <trkpt lat="55.892006" lon="36.553388"><time>2026-06-14T10:05:39.885Z</time></trkpt>
    <trkpt lat="55.892280" lon="36.552516"><time>2026-06-14T10:05:40.783Z</time></trkpt>
    <trkpt lat="55.892517" lon="36.551617"><time>2026-06-14T10:05:41.682Z</time></trkpt>
    <trkpt lat="55.892720" lon="36.550693"><time>2026-06-14T10:05:42.580Z</time></trkpt>
    <trkpt lat="55.892892" lon="36.549750"><time>2026-06-14T10:05:43.479Z</time></trkpt>
    <trkpt lat="55.893036" lon="36.548790"><time>2026-06-14T10:05:44.377Z</time></trkpt>
    <trkpt lat="55.893154" lon="36.547818"><time>2026-06-14T10:05:45.276Z</time></trkpt>
    <trkpt lat="55.893249" lon="36.546836"><time>2026-06-14T10:05:46.174Z</time></trkpt>
    <trkpt lat="55.893325" lon="36.545849"><time>2026-06-14T10:05:47.072Z</time></trkpt>
    <trkpt lat="55.893384" lon="36.544860"><time>2026-06-14T10:05:47.971Z</time></trkpt>
    <trkpt lat="55.893429" lon="36.543872"><time>2026-06-14T10:05:48.869Z</time></trkpt>
    <trkpt lat="55.893461" lon="36.542889"><time>2026-06-14T10:05:49.768Z</time></trkpt>
    <trkpt lat="55.893483" lon="36.541914"><time>2026-06-14T10:05:50.666Z</time></trkpt>
    <trkpt lat="55.893496" lon="36.540950"><time>2026-06-14T10:05:51.565Z</time></trkpt>
    <trkpt lat="55.893500" lon="36.540000"><time>2026-06-14T10:05:52.463Z</time></trkpt>
    <trkpt lat="55.893496" lon="36.539066"><time>2026-06-14T10:05:53.361Z</time></trkpt>
    <trkpt lat="55.893483" lon="36.538151"><time>2026-06-14T10:05:54.260Z</time></trkpt>
    <trkpt lat="55.893461" lon="36.537258"><time>2026-06-14T10:05:55.158Z</time></trkpt>
    <trkpt lat="55.893429" lon="36.536387"><time>2026-06-14T10:05:56.057Z</time></trkpt>
    <trkpt lat="55.893384" lon="36.535542"><time>2026-06-14T10:05:56.955Z</time></trkpt>
    <trkpt lat="55.893325" lon="36.534724"><time>2026-06-14T10:05:57.854Z</time></trkpt>
    <trkpt lat="55.893249" lon="36.533935"><time>2026-06-14T10:05:58.752Z</time></trkpt>
    <trkpt lat="55.893154" lon="36.533175"><time>2026-06-14T10:05:59.650Z</time></trkpt>
    <trkpt lat="55.893036" lon="36.532446"><time>2026-06-14T10:06:00.549Z</time></trkpt>
    <trkpt lat="55.892892" lon="36.531750"><time>2026-06-14T10:06:01.447Z</time></trkpt>
    <trkpt lat="55.892720" lon="36.531086"><time>2026-06-14T10:06:02.346Z</time></trkpt>
    <trkpt lat="55.892517" lon="36.530456"><time>2026-06-14T10:06:03.244Z</time></trkpt>
    <trkpt lat="55.892280" lon="36.529860"><time>2026-06-14T10:06:04.143Z</time></trkpt>
    <trkpt lat="55.892006" lon="36.529299"><time>2026-06-14T10:06:05.041Z</time></trkpt>
    <trkpt lat="55.891692" lon="36.528772"><time>2026-06-14T10:06:05.940Z</time></trkpt>
    <trkpt lat="55.891339" lon="36.528280"><time>2026-06-14T10:06:06.838Z</time></trkpt>
    <trkpt lat="55.890943" lon="36.527823"><time>2026-06-14T10:06:07.736Z</time></trkpt>
    <trkpt lat="55.890504" lon="36.527401"><time>2026-06-14T10:06:08.635Z</time></trkpt>
    <trkpt lat="55.890023" lon="36.527014"><time>2026-06-14T10:06:09.533Z</time></trkpt>
    <trkpt lat="55.889500" lon="36.526662"><time>2026-06-14T10:06:10.432Z</time></trkpt>
    <trkpt lat="55.888936" lon="36.526344"><time>2026-06-14T10:06:11.330Z</time></trkpt>
    <trkpt lat="55.888332" lon="36.526060"><time>2026-06-14T10:06:12.229Z</time></trkpt>
    <trkpt lat="55.887691" lon="36.525810"><time>2026-06-14T10:06:13.127Z</time></trkpt>
    <trkpt lat="55.887017" lon="36.525595"><time>2026-06-14T10:06:14.025Z</time></trkpt>
    <trkpt lat="55.886313" lon="36.525412"><time>2026-06-14T10:06:14.924Z</time></trkpt>
    <trkpt lat="55.885583" lon="36.525264"><time>2026-06-14T10:06:15.822Z</time></trkpt>
    <trkpt lat="55.884831" lon="36.525148"><time>2026-06-14T10:06:16.721Z</time></trkpt>
    <trkpt lat="55.884063" lon="36.525066"><time>2026-06-14T10:06:17.619Z</time></trkpt>
    <trkpt lat="55.883284" lon="36.525016"><time>2026-06-14T10:06:18.518Z</time></trkpt>
    <trkpt lat="55.882500" lon="36.525000"><time>2026-06-14T10:06:19.416Z</time></trkpt>
    <trkpt lat="55.881716" lon="36.525016"><time>2026-06-14T10:06:20.314Z</time></trkpt>
    <trkpt lat="55.880937" lon="36.525066"><time>2026-06-14T10:06:21.213Z</time></trkpt>
    <trkpt lat="55.880169" lon="36.525148"><time>2026-06-14T10:06:22.111Z</time></trkpt>
    <trkpt lat="55.879417" lon="36.525264"><time>2026-06-14T10:06:23.010Z</time></trkpt>
    <trkpt lat="55.878687" lon="36.525412"><time>2026-06-14T10:06:23.908Z</time></trkpt>
    <trkpt lat="55.877983" lon="36.525595"><time>2026-06-14T10:06:24.807Z</time></trkpt>
    <trkpt lat="55.877309" lon="36.525810"><time>2026-06-14T10:06:25.705Z</time></trkpt>
    <trkpt lat="55.876668" lon="36.526060"><time>2026-06-14T10:06:26.603Z</time></trkpt>
    <trkpt lat="55.876064" lon="36.526344"><time>2026-06-14T10:06:27.502Z</time></trkpt>
    <trkpt lat="55.875500" lon="36.526662"><time>2026-06-14T10:06:28.400Z</time></trkpt>
    <trkpt lat="55.874977" lon="36.527014"><time>2026-06-14T10:06:29.299Z</time></trkpt>
    <trkpt lat="55.874496" lon="36.527401"><time>2026-06-14T10:06:30.197Z</time></trkpt>
    <trkpt lat="55.874057" lon="36.527823"><time>2026-06-14T10:06:31.096Z</time></trkpt>
    <trkpt lat="55.873661" lon="36.528280"><time>2026-06-14T10:06:31.994Z</time></trkpt>
    <trkpt lat="55.873308" lon="36.528772"><time>2026-06-14T10:06:32.893Z</time></trkpt>
    <trkpt lat="55.872994" lon="36.529299"><time>2026-06-14T10:06:33.791Z</time></trkpt>
    <trkpt lat="55.872720" lon="36.529860"><time>2026-06-14T10:06:34.689Z</time></trkpt>
    <trkpt lat="55.872483" lon="36.530456"><time>2026-06-14T10:06:35.588Z</time></trkpt>
    <trkpt lat="55.872280" lon="36.531086"><time>2026-06-14T10:06:36.486Z</time></trkpt>
    <trkpt lat="55.872108" lon="36.531750"><time>2026-06-14T10:06:37.385Z</time></trkpt>
    <trkpt lat="55.871964" lon="36.532446"><time>2026-06-14T10:06:38.283Z</time></trkpt>
    <trkpt lat="55.871846" lon="36.533175"><time>2026-06-14T10:06:39.182Z</time></trkpt>
    <trkpt lat="55.871751" lon="36.533935"><time>2026-06-14T10:06:40.080Z</time></trkpt>
    <trkpt lat="55.871675" lon="36.534724"><time>2026-06-14T10:06:40.978Z</time></trkpt>
    <trkpt lat="55.871616" lon="36.535542"><time>2026-06-14T10:06:41.877Z</time></trkpt>
    <trkpt lat="55.871571" lon="36.536387"><time>2026-06-14T10:06:42.775Z</time></trkpt>
    <trkpt lat="55.871539" lon="36.537258"><time>2026-06-14T10:06:43.674Z</time></trkpt>
    <trkpt lat="55.871517" lon="36.538151"><time>2026-06-14T10:06:44.572Z</time></trkpt>
    <trkpt lat="55.871504" lon="36.539066"><time>2026-06-14T10:06:45.471Z</time></trkpt>
    <trkpt lat="55.871500" lon="36.540000"><time>2026-06-14T10:06:46.369Z</time></trkpt>
    <trkpt lat="55.871504" lon="36.540950"><time>2026-06-14T10:06:47.267Z</time></trkpt>
    <trkpt lat="55.871517" lon="36.541914"><time>2026-06-14T10:06:48.166Z</time></trkpt>
    <trkpt lat="55.871539" lon="36.542889"><time>2026-06-14T10:06:49.064Z</time></trkpt>
    <trkpt lat="55.871571" lon="36.543872"><time>2026-06-14T10:06:49.963Z</time></trkpt>
    <trkpt lat="55.871616" lon="36.544860"><time>2026-06-14T10:06:50.861Z</time></trkpt>
    <trkpt lat="55.871675" lon="36.545849"><time>2026-06-14T10:06:51.760Z</time></trkpt>
    <trkpt lat="55.871751" lon="36.546836"><time>2026-06-14T10:06:52.658Z</time></trkpt>
    <trkpt lat="55.871846" lon="36.547818"><time>2026-06-14T10:06:53.556Z</time></trkpt>
    <trkpt lat="55.871964" lon="36.548790"><time>2026-06-14T10:06:54.455Z</time></trkpt>
    <trkpt lat="55.872108" lon="36.549750"><time>2026-06-14T10:06:55.353Z</time></trkpt>
    <trkpt lat="55.872280" lon="36.550693"><time>2026-06-14T10:06:56.252Z</time></trkpt>
    <trkpt lat="55.872483" lon="36.551617"><time>2026-06-14T10:06:57.150Z</time></trkpt>
    <trkpt lat="55.872720" lon="36.552516"><time>2026-06-14T10:06:58.049Z</time></trkpt>
    <trkpt lat="55.872994" lon="36.553388"><time>2026-06-14T10:06:58.947Z</time></trkpt>
    <trkpt lat="55.873308" lon="36.554228"><time>2026-06-14T10:06:59.846Z</time></trkpt>
    <trkpt lat="55.873661" lon="36.555033"><time>2026-06-14T10:07:00.744Z</time></trkpt>
    <trkpt lat="55.874057" lon="36.555800"><time>2026-06-14T10:07:01.642Z</time></trkpt>
    <trkpt lat="55.874496" lon="36.556526"><time>2026-06-14T10:07:02.541Z</time></trkpt>
    <trkpt lat="55.874977" lon="36.557206"><time>2026-06-14T10:07:03.439Z</time></trkpt>
    <trkpt lat="55.875500" lon="36.557838"><time>2026-06-14T10:07:04.338Z</time></trkpt>
    <trkpt lat="55.876064" lon="36.558420"><time>2026-06-14T10:07:05.236Z</time></trkpt>
    <trkpt lat="55.876668" lon="36.558948"><time>2026-06-14T10:07:06.135Z</time></trkpt>
    <trkpt lat="55.877309" lon="36.559419"><time>2026-06-14T10:07:07.033Z</time></trkpt>
    <trkpt lat="55.877983" lon="36.559833"><time>2026-06-14T10:07:07.931Z</time></trkpt>
    <trkpt lat="55.878687" lon="36.560186"><time>2026-06-14T10:07:08.830Z</time></trkpt>
    <trkpt lat="55.879417" lon="36.560477"><time>2026-06-14T10:07:09.728Z</time></trkpt>
    <trkpt lat="55.880169" lon="36.560705"><time>2026-06-14T10:07:10.627Z</time></trkpt>
    <trkpt lat="55.880937" lon="36.560869"><time>2026-06-14T10:07:11.525Z</time></trkpt>
    <trkpt lat="55.881716" lon="36.560967"><time>2026-06-14T10:07:12.424Z</time></trkpt>
    <trkpt lat="55.882500" lon="36.561000"><time>2026-06-14T10:07:13.822Z</time></trkpt>
    <trkpt lat="55.883284" lon="36.560967"><time>2026-06-14T10:07:14.725Z</time></trkpt>
    <trkpt lat="55.884063" lon="36.560869"><time>2026-06-14T10:07:15.627Z</time></trkpt>
    <trkpt lat="55.884831" lon="36.560705"><time>2026-06-14T10:07:16.530Z</time></trkpt>
    <trkpt lat="55.885583" lon="36.560477"><time>2026-06-14T10:07:17.433Z</time></trkpt>
    <trkpt lat="55.886313" lon="36.560186"><time>2026-06-14T10:07:18.335Z</time></trkpt>
    <trkpt lat="55.887017" lon="36.559833"><time>2026-06-14T10:07:19.238Z</time></trkpt>
    <trkpt lat="55.887691" lon="36.559419"><time>2026-06-14T10:07:20.141Z</time></trkpt>
    <trkpt lat="55.888332" lon="36.558948"><time>2026-06-14T10:07:21.043Z</time></trkpt>
    <trkpt lat="55.888936" lon="36.558420"><time>2026-06-14T10:07:21.946Z</time></trkpt>
    <trkpt lat="55.889500" lon="36.557838"><time>2026-06-14T10:07:22.849Z</time></trkpt>
    <trkpt lat="55.890023" lon="36.557206"><time>2026-06-14T10:07:23.751Z</time></trkpt>
    <trkpt lat="55.890504" lon="36.556526"><time>2026-06-14T10:07:24.654Z</time></trkpt>
    <trkpt lat="55.890943" lon="36.555800"><time>2026-06-14T10:07:25.556Z</time></trkpt>
    <trkpt lat="55.891339" lon="36.555033"><time>2026-06-14T10:07:26.459Z</time></trkpt>
    <trkpt lat="55.891692" lon="36.554228"><time>2026-06-14T10:07:27.362Z</time></trkpt>
    <trkpt lat="55.892006" lon="36.553388"><time>2026-06-14T10:07:28.264Z</time></trkpt>
    <trkpt lat="55.892280" lon="36.552516"><time>2026-06-14T10:07:29.167Z</time></trkpt>
    <trkpt lat="55.892517" lon="36.551617"><time>2026-06-14T10:07:30.070Z</time></trkpt>
    <trkpt lat="55.892720" lon="36.550693"><time>2026-06-14T10:07:30.972Z</time></trkpt>
    <trkpt lat="55.892892" lon="36.549750"><time>2026-06-14T10:07:31.875Z</time></trkpt>
    <trkpt lat="55.893036" lon="36.548790"><time>2026-06-14T10:07:32.778Z</time></trkpt>
    <trkpt lat="55.893154" lon="36.547818"><time>2026-06-14T10:07:33.680Z</time></trkpt>
    <trkpt lat="55.893249" lon="36.546836"><time>2026-06-14T10:07:34.583Z</time></trkpt>
    <trkpt lat="55.893325" lon="36.545849"><time>2026-06-14T10:07:35.486Z</time></trkpt>
    <trkpt lat="55.893384" lon="36.544860"><time>2026-06-14T10:07:36.388Z</time></trkpt>
    <trkpt lat="55.893429" lon="36.543872"><time>2026-06-14T10:07:37.291Z</time></trkpt>
    <trkpt lat="55.893461" lon="36.542889"><time>2026-06-14T10:07:38.194Z</time></trkpt>
    <trkpt lat="55.893483" lon="36.541914"><time>2026-06-14T10:07:39.096Z</time></trkpt>
    <trkpt lat="55.893496" lon="36.540950"><time>2026-06-14T10:07:39.999Z</time></trkpt>
    <trkpt lat="55.893500" lon="36.540000"><time>2026-06-14T10:07:40.902Z</time></trkpt>
    <trkpt lat="55.893496" lon="36.539066"><time>2026-06-14T10:07:41.804Z</time></trkpt>
    <trkpt lat="55.893483" lon="36.538151"><time>2026-06-14T10:07:42.707Z</time></trkpt>
    <trkpt lat="55.893461" lon="36.537258"><time>2026-06-14T10:07:43.609Z</time></trkpt>
    <trkpt lat="55.893429" lon="36.536387"><time>2026-06-14T10:07:44.512Z</time></trkpt>
    <trkpt lat="55.893384" lon="36.535542"><time>2026-06-14T10:07:45.415Z</time></trkpt>
    <trkpt lat="55.893325" lon="36.534724"><time>2026-06-14T10:07:46.317Z</time></trkpt>
    <trkpt lat="55.893249" lon="36.533935"><time>2026-06-14T10:07:47.220Z</time></trkpt>
    <trkpt lat="55.893154" lon="36.533175"><time>2026-06-14T10:07:48.123Z</time></trkpt>
    <trkpt lat="55.893036" lon="36.532446"><time>2026-06-14T10:07:49.025Z</time></trkpt>
    <trkpt lat="55.892892" lon="36.531750"><time>2026-06-14T10:07:49.928Z</time></trkpt>
    <trkpt lat="55.892720" lon="36.531086"><time>2026-06-14T10:07:50.831Z</time></trkpt>
    <trkpt lat="55.892517" lon="36.530456"><time>2026-06-14T10:07:51.733Z</time></trkpt>
    <trkpt lat="55.892280" lon="36.529860"><time>2026-06-14T10:07:52.636Z</time></trkpt>
    <trkpt lat="55.892006" lon="36.529299"><time>2026-06-14T10:07:53.539Z</time></trkpt>
    <trkpt lat="55.891692" lon="36.528772"><time>2026-06-14T10:07:54.441Z</time></trkpt>
    <trkpt lat="55.891339" lon="36.528280"><time>2026-06-14T10:07:55.344Z</time></trkpt>
    <trkpt lat="55.890943" lon="36.527823"><time>2026-06-14T10:07:56.247Z</time></trkpt>
    <trkpt lat="55.890504" lon="36.527401"><time>2026-06-14T10:07:57.149Z</time></trkpt>
    <trkpt lat="55.890023" lon="36.527014"><time>2026-06-14T10:07:58.052Z</time></trkpt>
    <trkpt lat="55.889500" lon="36.526662"><time>2026-06-14T10:07:58.955Z</time></trkpt>
    <trkpt lat="55.888936" lon="36.526344"><time>2026-06-14T10:07:59.857Z</time></trkpt>
    <trkpt lat="55.888332" lon="36.526060"><time>2026-06-14T10:08:00.760Z</time></trkpt>
    <trkpt lat="55.887691" lon="36.525810"><time>2026-06-14T10:08:01.662Z</time></trkpt>
    <trkpt lat="55.887017" lon="36.525595"><time>2026-06-14T10:08:02.565Z</time></trkpt>
    <trkpt lat="55.886313" lon="36.525412"><time>2026-06-14T10:08:03.468Z</time></trkpt>
    <trkpt lat="55.885583" lon="36.525264"><time>2026-06-14T10:08:04.370Z</time></trkpt>
    <trkpt lat="55.884831" lon="36.525148"><time>2026-06-14T10:08:05.273Z</time></trkpt>
    <trkpt lat="55.884063" lon="36.525066"><time>2026-06-14T10:08:06.176Z</time></trkpt>
    <trkpt lat="55.883284" lon="36.525016"><time>2026-06-14T10:08:07.078Z</time></trkpt>
    <trkpt lat="55.882500" lon="36.525000"><time>2026-06-14T10:08:07.981Z</time></trkpt>
    <trkpt lat="55.881716" lon="36.525016"><time>2026-06-14T10:08:08.884Z</time></trkpt>
    <trkpt lat="55.880937" lon="36.525066"><time>2026-06-14T10:08:09.786Z</time></trkpt>
    <trkpt lat="55.880169" lon="36.525148"><time>2026-06-14T10:08:10.689Z</time></trkpt>
    <trkpt lat="55.879417" lon="36.525264"><time>2026-06-14T10:08:11.592Z</time></trkpt>
    <trkpt lat="55.878687" lon="36.525412"><time>2026-06-14T10:08:12.494Z</time></trkpt>
    <trkpt lat="55.877983" lon="36.525595"><time>2026-06-14T10:08:13.397Z</time></trkpt>
    <trkpt lat="55.877309" lon="36.525810"><time>2026-06-14T10:08:14.300Z</time></trkpt>
    <trkpt lat="55.876668" lon="36.526060"><time>2026-06-14T10:08:15.202Z</time></trkpt>
    <trkpt lat="55.876064" lon="36.526344"><time>2026-06-14T10:08:16.105Z</time></trkpt>
    <trkpt lat="55.875500" lon="36.526662"><time>2026-06-14T10:08:17.008Z</time></trkpt>
    <trkpt lat="55.874977" lon="36.527014"><time>2026-06-14T10:08:17.910Z</time></trkpt>
    <trkpt lat="55.874496" lon="36.527401"><time>2026-06-14T10:08:18.813Z</time></trkpt>
    <trkpt lat="55.874057" lon="36.527823"><time>2026-06-14T10:08:19.715Z</time></trkpt>
    <trkpt lat="55.873661" lon="36.528280"><time>2026-06-14T10:08:20.618Z</time></trkpt>
    <trkpt lat="55.873308" lon="36.528772"><time>2026-06-14T10:08:21.521Z</time></trkpt>
    <trkpt lat="55.872994" lon="36.529299"><time>2026-06-14T10:08:22.423Z</time></trkpt>
    <trkpt lat="55.872720" lon="36.529860"><time>2026-06-14T10:08:23.326Z</time></trkpt>
    <trkpt lat="55.872483" lon="36.530456"><time>2026-06-14T10:08:24.229Z</time></trkpt>
    <trkpt lat="55.872280" lon="36.531086"><time>2026-06-14T10:08:25.131Z</time></trkpt>
    <trkpt lat="55.872108" lon="36.531750"><time>2026-06-14T10:08:26.034Z</time></trkpt>
    <trkpt lat="55.871964" lon="36.532446"><time>2026-06-14T10:08:26.937Z</time></trkpt>
    <trkpt lat="55.871846" lon="36.533175"><time>2026-06-14T10:08:27.839Z</time></trkpt>
    <trkpt lat="55.871751" lon="36.533935"><time>2026-06-14T10:08:28.742Z</time></trkpt>
    <trkpt lat="55.871675" lon="36.534724"><time>2026-06-14T10:08:29.645Z</time></trkpt>
    <trkpt lat="55.871616" lon="36.535542"><time>2026-06-14T10:08:30.547Z</time></trkpt>
    <trkpt lat="55.871571" lon="36.536387"><time>2026-06-14T10:08:31.450Z</time></trkpt>
    <trkpt lat="55.871539" lon="36.537258"><time>2026-06-14T10:08:32.353Z</time></trkpt>
    <trkpt lat="55.871517" lon="36.538151"><time>2026-06-14T10:08:33.255Z</time></trkpt>
    <trkpt lat="55.871504" lon="36.539066"><time>2026-06-14T10:08:34.158Z</time></trkpt>
    <trkpt lat="55.871500" lon="36.540000"><time>2026-06-14T10:08:35.061Z</time></trkpt>
    <trkpt lat="55.871504" lon="36.540950"><time>2026-06-14T10:08:35.963Z</time></trkpt>
    <trkpt lat="55.871517" lon="36.541914"><time>2026-06-14T10:08:36.866Z</time></trkpt>
    <trkpt lat="55.871539" lon="36.542889"><time>2026-06-14T10:08:37.768Z</time></trkpt>
    <trkpt lat="55.871571" lon="36.543872"><time>2026-06-14T10:08:38.671Z</time></trkpt>
    <trkpt lat="55.871616" lon="36.544860"><time>2026-06-14T10:08:39.574Z</time></trkpt>
    <trkpt lat="55.871675" lon="36.545849"><time>2026-06-14T10:08:40.476Z</time></trkpt>
    <trkpt lat="55.871751" lon="36.546836"><time>2026-06-14T10:08:41.379Z</time></trkpt>
    <trkpt lat="55.871846" lon="36.547818"><time>2026-06-14T10:08:42.282Z</time></trkpt>
    <trkpt lat="55.871964" lon="36.548790"><time>2026-06-14T10:08:43.184Z</time></trkpt>
    <trkpt lat="55.872108" lon="36.549750"><time>2026-06-14T10:08:44.087Z</time></trkpt>
    <trkpt lat="55.872280" lon="36.550693"><time>2026-06-14T10:08:44.990Z</time></trkpt>
    <trkpt lat="55.872483" lon="36.551617"><time>2026-06-14T10:08:45.892Z</time></trkpt>
    <trkpt lat="55.872720" lon="36.552516"><time>2026-06-14T10:08:46.795Z</time></trkpt>
    <trkpt lat="55.872994" lon="36.553388"><time>2026-06-14T10:08:47.698Z</time></trkpt>
    <trkpt lat="55.873308" lon="36.554228"><time>2026-06-14T10:08:48.600Z</time></trkpt>
    <trkpt lat="55.873661" lon="36.555033"><time>2026-06-14T10:08:49.503Z</time></trkpt>
    <trkpt lat="55.874057" lon="36.555800"><time>2026-06-14T10:08:50.406Z</time></trkpt>
    <trkpt lat="55.874496" lon="36.556526"><time>2026-06-14T10:08:51.308Z</time></trkpt>
    <trkpt lat="55.874977" lon="36.557206"><time>2026-06-14T10:08:52.211Z</time></trkpt>
    <trkpt lat="55.875500" lon="36.557838"><time>2026-06-14T10:08:53.114Z</time></trkpt>
    <trkpt lat="55.876064" lon="36.558420"><time>2026-06-14T10:08:54.016Z</time></trkpt>
    <trkpt lat="55.876668" lon="36.558948"><time>2026-06-14T10:08:54.919Z</time></trkpt>
    <trkpt lat="55.877309" lon="36.559419"><time>2026-06-14T10:08:55.821Z</time></trkpt>
    <trkpt lat="55.877983" lon="36.559833"><time>2026-06-14T10:08:56.724Z</time></trkpt>
    <trkpt lat="55.878687" lon="36.560186"><time>2026-06-14T10:08:57.627Z</time></trkpt>
    <trkpt lat="55.879417" lon="36.560477"><time>2026-06-14T10:08:58.529Z</time></trkpt>
    <trkpt lat="55.880169" lon="36.560705"><time>2026-06-14T10:08:59.432Z</time></trkpt>
    <trkpt lat="55.880937" lon="36.560869"><time>2026-06-14T10:09:00.335Z</time></trkpt>
    <trkpt lat="55.881716" lon="36.560967"><time>2026-06-14T10:09:01.237Z</time></trkpt>
  </trkseg></trk>
</gpx>